<?xml version="1.0" encoding="UTF-8"?><gpx creator="Wikiloc - http://www.wikiloc.com" version="1.1" xmlns="http://www.topografix.com/GPX/1/1" xmlns:xsi="http://www.w3.org/2001/XMLSchema-instance" xsi:schemaLocation="http://www.topografix.com/GPX/1/1 http://www.topografix.com/GPX/1/1/gpx.xsd"><wpt lat="14.761085" lon="-91.549578"><ele>3440.0</ele><name><![CDATA[Paso de montaña]]></name><cmt><![CDATA[Paso de montaña]]></cmt><desc><![CDATA[]]></desc><type>94</type></wpt><wpt lat="14.760083" lon="-91.550094"><ele>3532.0</ele><name><![CDATA[Paso de montaña]]></name><cmt><![CDATA[Paso de montaña]]></cmt><desc><![CDATA[]]></desc><type>94</type></wpt><wpt lat="14.757422" lon="-91.551574"><ele>3766.0</ele><name><![CDATA[Cima del volcán Santa María]]></name><cmt><![CDATA[Cima del volcán Santa María]]></cmt><desc><![CDATA[]]></desc><type>33</type></wpt><trk><name><![CDATA[Ruta Santa María]]></name><cmt><![CDATA[Ruta Santa María]]></cmt><desc><![CDATA[Ruta Santa María]]></desc><trkseg><trkpt lat="14.773321" lon="-91.553217"><ele>2797.351</ele><time>2026-08-28T11:37:19Z</time></trkpt><trkpt lat="14.773364" lon="-91.553239"><ele>2794.301</ele><time>2026-08-28T11:37:22Z</time></trkpt><trkpt lat="14.77331" lon="-91.553211"><ele>2791.311</ele><time>2026-08-28T11:37:27Z</time></trkpt><trkpt lat="14.773265" lon="-91.55318"><ele>2791.409</ele><time>2026-08-28T11:37:31Z</time></trkpt><trkpt lat="14.773254" lon="-91.553134"><ele>2791.557</ele><time>2026-08-28T11:37:36Z</time></trkpt><trkpt lat="14.773283" lon="-91.55309"><ele>2791.823</ele><time>2026-08-28T11:37:41Z</time></trkpt><trkpt lat="14.773283" lon="-91.553036"><ele>2791.827</ele><time>2026-08-28T11:37:47Z</time></trkpt><trkpt lat="14.773282" lon="-91.552987"><ele>2792.331</ele><time>2026-08-28T11:37:53Z</time></trkpt><trkpt lat="14.773272" lon="-91.55294"><ele>2792.892</ele><time>2026-08-28T11:37:58Z</time></trkpt><trkpt lat="14.773259" lon="-91.552888"><ele>2793.333</ele><time>2026-08-28T11:38:03Z</time></trkpt><trkpt lat="14.77328" lon="-91.55284"><ele>2794.037</ele><time>2026-08-28T11:38:09Z</time></trkpt><trkpt lat="14.773286" lon="-91.552787"><ele>2794.697</ele><time>2026-08-28T11:38:17Z</time></trkpt><trkpt lat="14.773275" lon="-91.552741"><ele>2795.058</ele><time>2026-08-28T11:38:23Z</time></trkpt><trkpt lat="14.773261" lon="-91.55269"><ele>2795.667</ele><time>2026-08-28T11:38:30Z</time></trkpt><trkpt lat="14.77328" lon="-91.552631"><ele>2796.581</ele><time>2026-08-28T11:38:38Z</time></trkpt><trkpt lat="14.77322" lon="-91.552619"><ele>2798.019</ele><time>2026-08-28T11:38:43Z</time></trkpt><trkpt lat="14.773207" lon="-91.552573"><ele>2798.709</ele><time>2026-08-28T11:38:51Z</time></trkpt><trkpt lat="14.773159" lon="-91.552552"><ele>2800.088</ele><time>2026-08-28T11:38:56Z</time></trkpt><trkpt lat="14.773139" lon="-91.552509"><ele>2800.654</ele><time>2026-08-28T11:38:59Z</time></trkpt><trkpt lat="14.77312" lon="-91.552462"><ele>2801.598</ele><time>2026-08-28T11:39:04Z</time></trkpt><trkpt lat="14.773095" lon="-91.552419"><ele>2802.142</ele><time>2026-08-28T11:39:14Z</time></trkpt><trkpt lat="14.77307" lon="-91.552378"><ele>2802.883</ele><time>2026-08-28T11:39:18Z</time></trkpt><trkpt lat="14.773052" lon="-91.552333"><ele>2803.864</ele><time>2026-08-28T11:39:21Z</time></trkpt><trkpt lat="14.773103" lon="-91.552286"><ele>2804.728</ele><time>2026-08-28T11:39:32Z</time></trkpt><trkpt lat="14.773132" lon="-91.552248"><ele>2805.218</ele><time>2026-08-28T11:39:49Z</time></trkpt><trkpt lat="14.773124" lon="-91.552198"><ele>2806.399</ele><time>2026-08-28T11:39:54Z</time></trkpt><trkpt lat="14.773119" lon="-91.552146"><ele>2808.464</ele><time>2026-08-28T11:40:03Z</time></trkpt><trkpt lat="14.773071" lon="-91.552136"><ele>2810.006</ele><time>2026-08-28T11:40:12Z</time></trkpt><trkpt lat="14.773084" lon="-91.55209"><ele>2811.016</ele><time>2026-08-28T11:40:16Z</time></trkpt><trkpt lat="14.773064" lon="-91.552045"><ele>2812.309</ele><time>2026-08-28T11:40:29Z</time></trkpt><trkpt lat="14.77304" lon="-91.552003"><ele>2813.248</ele><time>2026-08-28T11:40:35Z</time></trkpt><trkpt lat="14.773042" lon="-91.551949"><ele>2814.394</ele><time>2026-08-28T11:40:39Z</time></trkpt><trkpt lat="14.773007" lon="-91.551896"><ele>2815.888</ele><time>2026-08-28T11:40:52Z</time></trkpt><trkpt lat="14.772971" lon="-91.551861"><ele>2816.622</ele><time>2026-08-28T11:40:56Z</time></trkpt><trkpt lat="14.772909" lon="-91.551864"><ele>2818.913</ele><time>2026-08-28T11:41:04Z</time></trkpt><trkpt lat="14.7729" lon="-91.551783"><ele>2819.474</ele><time>2026-08-28T11:41:12Z</time></trkpt><trkpt lat="14.772924" lon="-91.551733"><ele>2820.688</ele><time>2026-08-28T11:41:24Z</time></trkpt><trkpt lat="14.772935" lon="-91.551631"><ele>2822.718</ele><time>2026-08-28T11:41:33Z</time></trkpt><trkpt lat="14.772903" lon="-91.551585"><ele>2824.479</ele><time>2026-08-28T11:41:37Z</time></trkpt><trkpt lat="14.77291" lon="-91.551531"><ele>2825.043</ele><time>2026-08-28T11:41:40Z</time></trkpt><trkpt lat="14.772901" lon="-91.551593"><ele>2825.464</ele><time>2026-08-28T11:41:43Z</time></trkpt><trkpt lat="14.77291" lon="-91.551538"><ele>2825.810</ele><time>2026-08-28T11:41:48Z</time></trkpt><trkpt lat="14.772893" lon="-91.55146"><ele>2826.109</ele><time>2026-08-28T11:41:55Z</time></trkpt><trkpt lat="14.772847" lon="-91.551461"><ele>2826.866</ele><time>2026-08-28T11:42:00Z</time></trkpt><trkpt lat="14.772831" lon="-91.551411"><ele>2828.042</ele><time>2026-08-28T11:42:07Z</time></trkpt><trkpt lat="14.772813" lon="-91.551356"><ele>2828.716</ele><time>2026-08-28T11:42:09Z</time></trkpt><trkpt lat="14.772827" lon="-91.551423"><ele>2829.530</ele><time>2026-08-28T11:42:13Z</time></trkpt><trkpt lat="14.772858" lon="-91.551365"><ele>2829.761</ele><time>2026-08-28T11:42:19Z</time></trkpt><trkpt lat="14.772835" lon="-91.551319"><ele>2830.332</ele><time>2026-08-28T11:42:22Z</time></trkpt><trkpt lat="14.772798" lon="-91.551282"><ele>2831.126</ele><time>2026-08-28T11:42:31Z</time></trkpt><trkpt lat="14.772809" lon="-91.551235"><ele>2831.516</ele><time>2026-08-28T11:42:39Z</time></trkpt><trkpt lat="14.772768" lon="-91.551209"><ele>2832.277</ele><time>2026-08-28T11:42:42Z</time></trkpt><trkpt lat="14.772751" lon="-91.55115"><ele>2833.477</ele><time>2026-08-28T11:42:44Z</time></trkpt><trkpt lat="14.772756" lon="-91.551214"><ele>2834.161</ele><time>2026-08-28T11:42:46Z</time></trkpt><trkpt lat="14.772767" lon="-91.551135"><ele>2834.427</ele><time>2026-08-28T11:42:49Z</time></trkpt><trkpt lat="14.772777" lon="-91.551089"><ele>2834.709</ele><time>2026-08-28T11:42:54Z</time></trkpt><trkpt lat="14.772802" lon="-91.55104"><ele>2835.079</ele><time>2026-08-28T11:42:57Z</time></trkpt><trkpt lat="14.772745" lon="-91.55097"><ele>2835.755</ele><time>2026-08-28T11:43:03Z</time></trkpt><trkpt lat="14.772747" lon="-91.550921"><ele>2836.059</ele><time>2026-08-28T11:43:13Z</time></trkpt><trkpt lat="14.772703" lon="-91.5509"><ele>2836.423</ele><time>2026-08-28T11:43:16Z</time></trkpt><trkpt lat="14.772671" lon="-91.550837"><ele>2837.294</ele><time>2026-08-28T11:43:20Z</time></trkpt><trkpt lat="14.77265" lon="-91.55079"><ele>2837.625</ele><time>2026-08-28T11:43:27Z</time></trkpt><trkpt lat="14.772589" lon="-91.550756"><ele>2838.059</ele><time>2026-08-28T11:43:31Z</time></trkpt><trkpt lat="14.772625" lon="-91.550716"><ele>2838.599</ele><time>2026-08-28T11:43:43Z</time></trkpt><trkpt lat="14.77259" lon="-91.550685"><ele>2838.870</ele><time>2026-08-28T11:43:50Z</time></trkpt><trkpt lat="14.772566" lon="-91.550641"><ele>2839.061</ele><time>2026-08-28T11:43:56Z</time></trkpt><trkpt lat="14.772601" lon="-91.550578"><ele>2839.621</ele><time>2026-08-28T11:43:59Z</time></trkpt><trkpt lat="14.772566" lon="-91.550538"><ele>2839.813</ele><time>2026-08-28T11:44:04Z</time></trkpt><trkpt lat="14.77252" lon="-91.55051"><ele>2840.409</ele><time>2026-08-28T11:44:09Z</time></trkpt><trkpt lat="14.772554" lon="-91.550463"><ele>2841.078</ele><time>2026-08-28T11:44:11Z</time></trkpt><trkpt lat="14.772482" lon="-91.550502"><ele>2841.674</ele><time>2026-08-28T11:44:12Z</time></trkpt><trkpt lat="14.772515" lon="-91.550457"><ele>2841.768</ele><time>2026-08-28T11:44:16Z</time></trkpt><trkpt lat="14.772495" lon="-91.550414"><ele>2841.732</ele><time>2026-08-28T11:44:23Z</time></trkpt><trkpt lat="14.772475" lon="-91.550352"><ele>2842.023</ele><time>2026-08-28T11:44:26Z</time></trkpt><trkpt lat="14.772487" lon="-91.55028"><ele>2842.524</ele><time>2026-08-28T11:44:30Z</time></trkpt><trkpt lat="14.772534" lon="-91.550301"><ele>2842.988</ele><time>2026-08-28T11:44:36Z</time></trkpt><trkpt lat="14.772479" lon="-91.55028"><ele>2843.648</ele><time>2026-08-28T11:44:37Z</time></trkpt><trkpt lat="14.772419" lon="-91.550248"><ele>2844.719</ele><time>2026-08-28T11:44:48Z</time></trkpt><trkpt lat="14.772458" lon="-91.550217"><ele>2844.997</ele><time>2026-08-28T11:44:54Z</time></trkpt><trkpt lat="14.772462" lon="-91.55017"><ele>2846.423</ele><time>2026-08-28T11:44:57Z</time></trkpt><trkpt lat="14.772459" lon="-91.550116"><ele>2847.225</ele><time>2026-08-28T11:45:01Z</time></trkpt><trkpt lat="14.772458" lon="-91.550068"><ele>2847.309</ele><time>2026-08-28T11:45:10Z</time></trkpt><trkpt lat="14.772435" lon="-91.550026"><ele>2847.631</ele><time>2026-08-28T11:45:15Z</time></trkpt><trkpt lat="14.772433" lon="-91.54997"><ele>2848.087</ele><time>2026-08-28T11:45:20Z</time></trkpt><trkpt lat="14.772444" lon="-91.54992"><ele>2848.591</ele><time>2026-08-28T11:45:29Z</time></trkpt><trkpt lat="14.772334" lon="-91.549858"><ele>2849.685</ele><time>2026-08-28T11:45:44Z</time></trkpt><trkpt lat="14.772369" lon="-91.549901"><ele>2851.446</ele><time>2026-08-28T11:45:46Z</time></trkpt><trkpt lat="14.772305" lon="-91.549917"><ele>2852.797</ele><time>2026-08-28T11:45:48Z</time></trkpt><trkpt lat="14.772273" lon="-91.549959"><ele>2853.011</ele><time>2026-08-28T11:46:04Z</time></trkpt><trkpt lat="14.772223" lon="-91.549972"><ele>2853.141</ele><time>2026-08-28T11:46:05Z</time></trkpt><trkpt lat="14.772193" lon="-91.549923"><ele>2855.322</ele><time>2026-08-28T11:46:07Z</time></trkpt><trkpt lat="14.772151" lon="-91.549957"><ele>2855.425</ele><time>2026-08-28T11:46:09Z</time></trkpt><trkpt lat="14.772149" lon="-91.549907"><ele>2855.526</ele><time>2026-08-28T11:46:11Z</time></trkpt><trkpt lat="14.772126" lon="-91.549843"><ele>2855.708</ele><time>2026-08-28T11:46:15Z</time></trkpt><trkpt lat="14.772206" lon="-91.549854"><ele>2856.109</ele><time>2026-08-28T11:46:17Z</time></trkpt><trkpt lat="14.772162" lon="-91.549872"><ele>2856.914</ele><time>2026-08-28T11:46:20Z</time></trkpt><trkpt lat="14.772194" lon="-91.549828"><ele>2857.460</ele><time>2026-08-28T11:46:24Z</time></trkpt><trkpt lat="14.772234" lon="-91.549783"><ele>2858.024</ele><time>2026-08-28T11:46:26Z</time></trkpt><trkpt lat="14.772276" lon="-91.549694"><ele>2858.578</ele><time>2026-08-28T11:46:35Z</time></trkpt><trkpt lat="14.772214" lon="-91.549727"><ele>2859.319</ele><time>2026-08-28T11:46:39Z</time></trkpt><trkpt lat="14.772207" lon="-91.54968"><ele>2860.270</ele><time>2026-08-28T11:46:44Z</time></trkpt><trkpt lat="14.772256" lon="-91.549674"><ele>2860.544</ele><time>2026-08-28T11:46:52Z</time></trkpt><trkpt lat="14.772203" lon="-91.549684"><ele>2861.094</ele><time>2026-08-28T11:46:59Z</time></trkpt><trkpt lat="14.772141" lon="-91.549696"><ele>2862.365</ele><time>2026-08-28T11:47:03Z</time></trkpt><trkpt lat="14.772112" lon="-91.549745"><ele>2862.833</ele><time>2026-08-28T11:47:07Z</time></trkpt><trkpt lat="14.772173" lon="-91.549712"><ele>2864.223</ele><time>2026-08-28T11:47:09Z</time></trkpt><trkpt lat="14.77218" lon="-91.549665"><ele>2864.715</ele><time>2026-08-28T11:47:13Z</time></trkpt><trkpt lat="14.772142" lon="-91.549636"><ele>2865.109</ele><time>2026-08-28T11:47:18Z</time></trkpt><trkpt lat="14.772125" lon="-91.549589"><ele>2865.495</ele><time>2026-08-28T11:47:27Z</time></trkpt><trkpt lat="14.772086" lon="-91.549634"><ele>2866.031</ele><time>2026-08-28T11:47:30Z</time></trkpt><trkpt lat="14.772043" lon="-91.549617"><ele>2866.915</ele><time>2026-08-28T11:47:35Z</time></trkpt><trkpt lat="14.772049" lon="-91.549569"><ele>2867.729</ele><time>2026-08-28T11:47:38Z</time></trkpt><trkpt lat="14.772034" lon="-91.54951"><ele>2868.280</ele><time>2026-08-28T11:47:46Z</time></trkpt><trkpt lat="14.771995" lon="-91.549535"><ele>2868.831</ele><time>2026-08-28T11:47:55Z</time></trkpt><trkpt lat="14.771963" lon="-91.5495"><ele>2869.725</ele><time>2026-08-28T11:48:01Z</time></trkpt><trkpt lat="14.771912" lon="-91.549518"><ele>2871.065</ele><time>2026-08-28T11:48:03Z</time></trkpt><trkpt lat="14.771919" lon="-91.54947"><ele>2871.986</ele><time>2026-08-28T11:48:09Z</time></trkpt><trkpt lat="14.77185" lon="-91.549472"><ele>2872.318</ele><time>2026-08-28T11:48:16Z</time></trkpt><trkpt lat="14.771845" lon="-91.549416"><ele>2873.298</ele><time>2026-08-28T11:48:22Z</time></trkpt><trkpt lat="14.771819" lon="-91.549364"><ele>2874.517</ele><time>2026-08-28T11:48:41Z</time></trkpt><trkpt lat="14.771835" lon="-91.549506"><ele>2877.009</ele><time>2026-08-28T11:48:44Z</time></trkpt><trkpt lat="14.771773" lon="-91.549364"><ele>2879.573</ele><time>2026-08-28T11:48:47Z</time></trkpt><trkpt lat="14.771834" lon="-91.549382"><ele>2879.859</ele><time>2026-08-28T11:48:52Z</time></trkpt><trkpt lat="14.771826" lon="-91.549325"><ele>2880.283</ele><time>2026-08-28T11:48:56Z</time></trkpt><trkpt lat="14.771804" lon="-91.549282"><ele>2880.837</ele><time>2026-08-28T11:48:57Z</time></trkpt><trkpt lat="14.771768" lon="-91.549243"><ele>2881.058</ele><time>2026-08-28T11:49:01Z</time></trkpt><trkpt lat="14.771551" lon="-91.549479"><ele>2882.269</ele><time>2026-08-28T11:49:02Z</time></trkpt><trkpt lat="14.771654" lon="-91.549391"><ele>2882.323</ele><time>2026-08-28T11:49:03Z</time></trkpt><trkpt lat="14.771786" lon="-91.549424"><ele>2882.473</ele><time>2026-08-28T11:49:07Z</time></trkpt><trkpt lat="14.771757" lon="-91.549377"><ele>2883.364</ele><time>2026-08-28T11:49:08Z</time></trkpt><trkpt lat="14.771749" lon="-91.549331"><ele>2883.413</ele><time>2026-08-28T11:49:14Z</time></trkpt><trkpt lat="14.771722" lon="-91.549292"><ele>2884.043</ele><time>2026-08-28T11:49:15Z</time></trkpt><trkpt lat="14.771722" lon="-91.549239"><ele>2884.507</ele><time>2026-08-28T11:49:18Z</time></trkpt><trkpt lat="14.771703" lon="-91.549187"><ele>2884.609</ele><time>2026-08-28T11:49:20Z</time></trkpt><trkpt lat="14.771665" lon="-91.54915"><ele>2884.983</ele><time>2026-08-28T11:49:23Z</time></trkpt><trkpt lat="14.771735" lon="-91.549299"><ele>2885.679</ele><time>2026-08-28T11:49:24Z</time></trkpt><trkpt lat="14.771709" lon="-91.54925"><ele>2885.813</ele><time>2026-08-28T11:49:29Z</time></trkpt><trkpt lat="14.771702" lon="-91.549307"><ele>2886.277</ele><time>2026-08-28T11:49:33Z</time></trkpt><trkpt lat="14.771657" lon="-91.549334"><ele>2886.928</ele><time>2026-08-28T11:49:41Z</time></trkpt><trkpt lat="14.771647" lon="-91.549269"><ele>2887.219</ele><time>2026-08-28T11:49:45Z</time></trkpt><trkpt lat="14.771629" lon="-91.549219"><ele>2888.013</ele><time>2026-08-28T11:49:47Z</time></trkpt><trkpt lat="14.771599" lon="-91.549177"><ele>2888.023</ele><time>2026-08-28T11:49:50Z</time></trkpt><trkpt lat="14.771607" lon="-91.549127"><ele>2888.194</ele><time>2026-08-28T11:49:57Z</time></trkpt><trkpt lat="14.771564" lon="-91.549179"><ele>2888.422</ele><time>2026-08-28T11:50:06Z</time></trkpt><trkpt lat="14.771526" lon="-91.549152"><ele>2888.862</ele><time>2026-08-28T11:50:10Z</time></trkpt><trkpt lat="14.771469" lon="-91.549125"><ele>2890.008</ele><time>2026-08-28T11:50:12Z</time></trkpt><trkpt lat="14.771456" lon="-91.549194"><ele>2890.009</ele><time>2026-08-28T11:50:13Z</time></trkpt><trkpt lat="14.771433" lon="-91.549094"><ele>2890.594</ele><time>2026-08-28T11:50:25Z</time></trkpt><trkpt lat="14.771417" lon="-91.549158"><ele>2891.330</ele><time>2026-08-28T11:50:26Z</time></trkpt><trkpt lat="14.771382" lon="-91.549198"><ele>2892.164</ele><time>2026-08-28T11:50:28Z</time></trkpt><trkpt lat="14.771424" lon="-91.549146"><ele>2892.378</ele><time>2026-08-28T11:50:33Z</time></trkpt><trkpt lat="14.771296" lon="-91.549107"><ele>2892.889</ele><time>2026-08-28T11:51:02Z</time></trkpt><trkpt lat="14.771311" lon="-91.549161"><ele>2893.270</ele><time>2026-08-28T11:51:05Z</time></trkpt><trkpt lat="14.771368" lon="-91.549169"><ele>2893.314</ele><time>2026-08-28T11:51:08Z</time></trkpt><trkpt lat="14.771315" lon="-91.549215"><ele>2893.334</ele><time>2026-08-28T11:51:10Z</time></trkpt><trkpt lat="14.771253" lon="-91.549206"><ele>2893.375</ele><time>2026-08-28T11:51:14Z</time></trkpt><trkpt lat="14.771237" lon="-91.549162"><ele>2893.432</ele><time>2026-08-28T11:51:17Z</time></trkpt><trkpt lat="14.771258" lon="-91.54912"><ele>2893.692</ele><time>2026-08-28T11:51:23Z</time></trkpt><trkpt lat="14.771223" lon="-91.549089"><ele>2893.811</ele><time>2026-08-28T11:51:28Z</time></trkpt><trkpt lat="14.771178" lon="-91.549057"><ele>2894.509</ele><time>2026-08-28T11:51:30Z</time></trkpt><trkpt lat="14.771125" lon="-91.549057"><ele>2895.445</ele><time>2026-08-28T11:51:34Z</time></trkpt><trkpt lat="14.771165" lon="-91.549031"><ele>2896.081</ele><time>2026-08-28T11:51:38Z</time></trkpt><trkpt lat="14.771106" lon="-91.549007"><ele>2896.755</ele><time>2026-08-28T11:51:47Z</time></trkpt><trkpt lat="14.771156" lon="-91.548928"><ele>2898.069</ele><time>2026-08-28T11:51:50Z</time></trkpt><trkpt lat="14.771095" lon="-91.548916"><ele>2899.210</ele><time>2026-08-28T11:51:58Z</time></trkpt><trkpt lat="14.77113" lon="-91.548839"><ele>2900.381</ele><time>2026-08-28T11:52:00Z</time></trkpt><trkpt lat="14.771171" lon="-91.548876"><ele>2901.185</ele><time>2026-08-28T11:52:05Z</time></trkpt><trkpt lat="14.771154" lon="-91.548827"><ele>2901.365</ele><time>2026-08-28T11:52:14Z</time></trkpt><trkpt lat="14.771163" lon="-91.548875"><ele>2902.136</ele><time>2026-08-28T11:52:29Z</time></trkpt><trkpt lat="14.771125" lon="-91.548845"><ele>2904.071</ele><time>2026-08-28T11:52:31Z</time></trkpt><trkpt lat="14.771128" lon="-91.548797"><ele>2904.541</ele><time>2026-08-28T11:52:36Z</time></trkpt><trkpt lat="14.771152" lon="-91.548757"><ele>2905.015</ele><time>2026-08-28T11:52:43Z</time></trkpt><trkpt lat="14.771146" lon="-91.548805"><ele>2905.409</ele><time>2026-08-28T11:52:46Z</time></trkpt><trkpt lat="14.771085" lon="-91.548788"><ele>2906.669</ele><time>2026-08-28T11:52:47Z</time></trkpt><trkpt lat="14.771047" lon="-91.548746"><ele>2907.635</ele><time>2026-08-28T11:52:54Z</time></trkpt><trkpt lat="14.771036" lon="-91.548692"><ele>2907.959</ele><time>2026-08-28T11:53:03Z</time></trkpt><trkpt lat="14.771018" lon="-91.548644"><ele>2908.353</ele><time>2026-08-28T11:53:08Z</time></trkpt><trkpt lat="14.770983" lon="-91.548613"><ele>2909.244</ele><time>2026-08-28T11:53:18Z</time></trkpt><trkpt lat="14.770994" lon="-91.54856"><ele>2910.035</ele><time>2026-08-28T11:53:23Z</time></trkpt><trkpt lat="14.771039" lon="-91.548543"><ele>2911.189</ele><time>2026-08-28T11:53:31Z</time></trkpt><trkpt lat="14.771082" lon="-91.548521"><ele>2912.049</ele><time>2026-08-28T11:53:38Z</time></trkpt><trkpt lat="14.771098" lon="-91.548477"><ele>2912.490</ele><time>2026-08-28T11:53:47Z</time></trkpt><trkpt lat="14.771087" lon="-91.54843"><ele>2913.192</ele><time>2026-08-28T11:53:52Z</time></trkpt><trkpt lat="14.771047" lon="-91.548403"><ele>2914.273</ele><time>2026-08-28T11:54:04Z</time></trkpt><trkpt lat="14.771031" lon="-91.548351"><ele>2915.420</ele><time>2026-08-28T11:54:11Z</time></trkpt><trkpt lat="14.770932" lon="-91.548323"><ele>2917.709</ele><time>2026-08-28T11:54:15Z</time></trkpt><trkpt lat="14.770987" lon="-91.54831"><ele>2918.791</ele><time>2026-08-28T11:54:22Z</time></trkpt><trkpt lat="14.770939" lon="-91.548309"><ele>2919.347</ele><time>2026-08-28T11:54:26Z</time></trkpt><trkpt lat="14.770977" lon="-91.548278"><ele>2920.121</ele><time>2026-08-28T11:54:28Z</time></trkpt><trkpt lat="14.770907" lon="-91.548255"><ele>2920.735</ele><time>2026-08-28T11:54:35Z</time></trkpt><trkpt lat="14.770882" lon="-91.548206"><ele>2920.966</ele><time>2026-08-28T11:54:48Z</time></trkpt><trkpt lat="14.770831" lon="-91.548207"><ele>2922.097</ele><time>2026-08-28T11:54:53Z</time></trkpt><trkpt lat="14.770785" lon="-91.548169"><ele>2923.911</ele><time>2026-08-28T11:55:01Z</time></trkpt><trkpt lat="14.77075" lon="-91.548137"><ele>2924.881</ele><time>2026-08-28T11:55:10Z</time></trkpt><trkpt lat="14.770733" lon="-91.548084"><ele>2925.462</ele><time>2026-08-28T11:55:17Z</time></trkpt><trkpt lat="14.77074" lon="-91.54803"><ele>2926.662</ele><time>2026-08-28T11:55:21Z</time></trkpt><trkpt lat="14.7707" lon="-91.548007"><ele>2927.783</ele><time>2026-08-28T11:55:34Z</time></trkpt><trkpt lat="14.770658" lon="-91.547981"><ele>2928.511</ele><time>2026-08-28T11:55:42Z</time></trkpt><trkpt lat="14.77064" lon="-91.547935"><ele>2929.509</ele><time>2026-08-28T11:55:45Z</time></trkpt><trkpt lat="14.770682" lon="-91.547897"><ele>2930.848</ele><time>2026-08-28T11:55:51Z</time></trkpt><trkpt lat="14.770648" lon="-91.547838"><ele>2931.614</ele><time>2026-08-28T11:55:59Z</time></trkpt><trkpt lat="14.770599" lon="-91.547832"><ele>2932.328</ele><time>2026-08-28T11:56:25Z</time></trkpt><trkpt lat="14.770603" lon="-91.547775"><ele>2933.922</ele><time>2026-08-28T11:56:45Z</time></trkpt><trkpt lat="14.770653" lon="-91.54779"><ele>2936.263</ele><time>2026-08-28T11:57:19Z</time></trkpt><trkpt lat="14.770591" lon="-91.547759"><ele>2936.264</ele><time>2026-08-28T11:57:43Z</time></trkpt><trkpt lat="14.77064" lon="-91.547777"><ele>2936.278</ele><time>2026-08-28T11:58:53Z</time></trkpt><trkpt lat="14.770581" lon="-91.547795"><ele>2936.238</ele><time>2026-08-28T12:00:42Z</time></trkpt><trkpt lat="14.770609" lon="-91.54784"><ele>2936.229</ele><time>2026-08-28T12:00:49Z</time></trkpt><trkpt lat="14.770598" lon="-91.547895"><ele>2936.231</ele><time>2026-08-28T12:00:56Z</time></trkpt><trkpt lat="14.770564" lon="-91.547927"><ele>2936.261</ele><time>2026-08-28T12:01:01Z</time></trkpt><trkpt lat="14.770514" lon="-91.54792"><ele>2936.407</ele><time>2026-08-28T12:01:08Z</time></trkpt><trkpt lat="14.770467" lon="-91.547903"><ele>2936.809</ele><time>2026-08-28T12:01:12Z</time></trkpt><trkpt lat="14.770406" lon="-91.547906"><ele>2937.255</ele><time>2026-08-28T12:01:21Z</time></trkpt><trkpt lat="14.770353" lon="-91.547897"><ele>2937.671</ele><time>2026-08-28T12:01:27Z</time></trkpt><trkpt lat="14.77031" lon="-91.547881"><ele>2938.235</ele><time>2026-08-28T12:01:33Z</time></trkpt><trkpt lat="14.770267" lon="-91.547868"><ele>2938.829</ele><time>2026-08-28T12:01:39Z</time></trkpt><trkpt lat="14.77022" lon="-91.547855"><ele>2939.370</ele><time>2026-08-28T12:01:47Z</time></trkpt><trkpt lat="14.770171" lon="-91.547853"><ele>2940.031</ele><time>2026-08-28T12:01:58Z</time></trkpt><trkpt lat="14.770124" lon="-91.547845"><ele>2941.035</ele><time>2026-08-28T12:02:04Z</time></trkpt><trkpt lat="14.770075" lon="-91.54785"><ele>2942.125</ele><time>2026-08-28T12:02:11Z</time></trkpt><trkpt lat="14.770024" lon="-91.547853"><ele>2943.186</ele><time>2026-08-28T12:02:20Z</time></trkpt><trkpt lat="14.769979" lon="-91.547872"><ele>2944.228</ele><time>2026-08-28T12:02:27Z</time></trkpt><trkpt lat="14.769937" lon="-91.547893"><ele>2945.489</ele><time>2026-08-28T12:02:33Z</time></trkpt><trkpt lat="14.769898" lon="-91.54792"><ele>2946.517</ele><time>2026-08-28T12:02:40Z</time></trkpt><trkpt lat="14.769852" lon="-91.54794"><ele>2947.209</ele><time>2026-08-28T12:02:47Z</time></trkpt><trkpt lat="14.769804" lon="-91.547975"><ele>2947.994</ele><time>2026-08-28T12:02:55Z</time></trkpt><trkpt lat="14.769763" lon="-91.547998"><ele>2948.650</ele><time>2026-08-28T12:03:03Z</time></trkpt><trkpt lat="14.769714" lon="-91.548005"><ele>2949.364</ele><time>2026-08-28T12:03:11Z</time></trkpt><trkpt lat="14.769668" lon="-91.548004"><ele>2950.048</ele><time>2026-08-28T12:03:21Z</time></trkpt><trkpt lat="14.769635" lon="-91.548048"><ele>2950.519</ele><time>2026-08-28T12:03:27Z</time></trkpt><trkpt lat="14.769589" lon="-91.548066"><ele>2951.490</ele><time>2026-08-28T12:03:39Z</time></trkpt><trkpt lat="14.769549" lon="-91.548088"><ele>2952.414</ele><time>2026-08-28T12:03:46Z</time></trkpt><trkpt lat="14.769499" lon="-91.548093"><ele>2953.694</ele><time>2026-08-28T12:03:53Z</time></trkpt><trkpt lat="14.769452" lon="-91.548096"><ele>2954.895</ele><time>2026-08-28T12:04:03Z</time></trkpt><trkpt lat="14.769402" lon="-91.548107"><ele>2955.789</ele><time>2026-08-28T12:04:10Z</time></trkpt><trkpt lat="14.769355" lon="-91.548088"><ele>2956.606</ele><time>2026-08-28T12:04:16Z</time></trkpt><trkpt lat="14.769328" lon="-91.548041"><ele>2957.526</ele><time>2026-08-28T12:04:23Z</time></trkpt><trkpt lat="14.769307" lon="-91.547994"><ele>2958.209</ele><time>2026-08-28T12:04:31Z</time></trkpt><trkpt lat="14.769302" lon="-91.547934"><ele>2959.230</ele><time>2026-08-28T12:04:35Z</time></trkpt><trkpt lat="14.769257" lon="-91.547911"><ele>2960.526</ele><time>2026-08-28T12:04:39Z</time></trkpt><trkpt lat="14.769207" lon="-91.547913"><ele>2961.440</ele><time>2026-08-28T12:04:46Z</time></trkpt><trkpt lat="14.769152" lon="-91.54791"><ele>2962.094</ele><time>2026-08-28T12:04:59Z</time></trkpt><trkpt lat="14.769101" lon="-91.547921"><ele>2962.775</ele><time>2026-08-28T12:05:49Z</time></trkpt><trkpt lat="14.769044" lon="-91.547909"><ele>2964.056</ele><time>2026-08-28T12:05:55Z</time></trkpt><trkpt lat="14.768994" lon="-91.54792"><ele>2965.530</ele><time>2026-08-28T12:06:05Z</time></trkpt><trkpt lat="14.768949" lon="-91.547935"><ele>2966.560</ele><time>2026-08-28T12:06:12Z</time></trkpt><trkpt lat="14.768904" lon="-91.547914"><ele>2967.581</ele><time>2026-08-28T12:06:19Z</time></trkpt><trkpt lat="14.76885" lon="-91.547904"><ele>2968.745</ele><time>2026-08-28T12:06:24Z</time></trkpt><trkpt lat="14.768804" lon="-91.547918"><ele>2969.647</ele><time>2026-08-28T12:06:31Z</time></trkpt><trkpt lat="14.768762" lon="-91.547941"><ele>2970.411</ele><time>2026-08-28T12:06:40Z</time></trkpt><trkpt lat="14.768748" lon="-91.547989"><ele>2971.209</ele><time>2026-08-28T12:06:50Z</time></trkpt><trkpt lat="14.768705" lon="-91.548017"><ele>2972.516</ele><time>2026-08-28T12:06:55Z</time></trkpt><trkpt lat="14.768665" lon="-91.548045"><ele>2973.832</ele><time>2026-08-28T12:07:09Z</time></trkpt><trkpt lat="14.768619" lon="-91.548047"><ele>2974.876</ele><time>2026-08-28T12:07:13Z</time></trkpt><trkpt lat="14.76858" lon="-91.548021"><ele>2976.020</ele><time>2026-08-28T12:07:17Z</time></trkpt><trkpt lat="14.768529" lon="-91.548035"><ele>2977.171</ele><time>2026-08-28T12:07:30Z</time></trkpt><trkpt lat="14.76848" lon="-91.548058"><ele>2977.692</ele><time>2026-08-28T12:07:38Z</time></trkpt><trkpt lat="14.768436" lon="-91.548032"><ele>2978.726</ele><time>2026-08-28T12:07:50Z</time></trkpt><trkpt lat="14.768392" lon="-91.548014"><ele>2980.056</ele><time>2026-08-28T12:07:58Z</time></trkpt><trkpt lat="14.768342" lon="-91.548021"><ele>2981.487</ele><time>2026-08-28T12:08:07Z</time></trkpt><trkpt lat="14.768297" lon="-91.548033"><ele>2983.146</ele><time>2026-08-28T12:08:14Z</time></trkpt><trkpt lat="14.768255" lon="-91.548053"><ele>2984.288</ele><time>2026-08-28T12:08:28Z</time></trkpt><trkpt lat="14.76821" lon="-91.548067"><ele>2985.016</ele><time>2026-08-28T12:08:41Z</time></trkpt><trkpt lat="14.768152" lon="-91.548081"><ele>2986.709</ele><time>2026-08-28T12:08:55Z</time></trkpt><trkpt lat="14.768104" lon="-91.548083"><ele>2988.936</ele><time>2026-08-28T12:09:04Z</time></trkpt><trkpt lat="14.768075" lon="-91.54812"><ele>2990.792</ele><time>2026-08-28T12:09:15Z</time></trkpt><trkpt lat="14.768026" lon="-91.548103"><ele>2992.236</ele><time>2026-08-28T12:09:24Z</time></trkpt><trkpt lat="14.767983" lon="-91.548085"><ele>2993.770</ele><time>2026-08-28T12:09:27Z</time></trkpt><trkpt lat="14.76793" lon="-91.548088"><ele>2995.531</ele><time>2026-08-28T12:09:42Z</time></trkpt><trkpt lat="14.767876" lon="-91.548083"><ele>2996.692</ele><time>2026-08-28T12:09:51Z</time></trkpt><trkpt lat="14.767825" lon="-91.5481"><ele>2998.136</ele><time>2026-08-28T12:09:57Z</time></trkpt><trkpt lat="14.767793" lon="-91.548139"><ele>3000.146</ele><time>2026-08-28T12:10:07Z</time></trkpt><trkpt lat="14.767793" lon="-91.548187"><ele>3001.477</ele><time>2026-08-28T12:10:14Z</time></trkpt><trkpt lat="14.767748" lon="-91.548208"><ele>3002.762</ele><time>2026-08-28T12:10:18Z</time></trkpt><trkpt lat="14.767697" lon="-91.548205"><ele>3003.783</ele><time>2026-08-28T12:10:24Z</time></trkpt><trkpt lat="14.767659" lon="-91.548243"><ele>3004.111</ele><time>2026-08-28T12:10:34Z</time></trkpt><trkpt lat="14.767654" lon="-91.548289"><ele>3004.609</ele><time>2026-08-28T12:10:52Z</time></trkpt><trkpt lat="14.767609" lon="-91.548364"><ele>3007.338</ele><time>2026-08-28T12:10:58Z</time></trkpt><trkpt lat="14.767574" lon="-91.54833"><ele>3009.514</ele><time>2026-08-28T12:11:07Z</time></trkpt><trkpt lat="14.767552" lon="-91.54838"><ele>3010.178</ele><time>2026-08-28T12:11:25Z</time></trkpt><trkpt lat="14.767506" lon="-91.548409"><ele>3011.442</ele><time>2026-08-28T12:11:44Z</time></trkpt><trkpt lat="14.767466" lon="-91.548386"><ele>3013.833</ele><time>2026-08-28T12:11:53Z</time></trkpt><trkpt lat="14.767435" lon="-91.548424"><ele>3014.964</ele><time>2026-08-28T12:12:06Z</time></trkpt><trkpt lat="14.767383" lon="-91.548393"><ele>3016.858</ele><time>2026-08-28T12:12:14Z</time></trkpt><trkpt lat="14.767336" lon="-91.548386"><ele>3018.988</ele><time>2026-08-28T12:12:26Z</time></trkpt><trkpt lat="14.767364" lon="-91.548425"><ele>3021.199</ele><time>2026-08-28T12:12:32Z</time></trkpt><trkpt lat="14.767343" lon="-91.548476"><ele>3022.779</ele><time>2026-08-28T12:12:41Z</time></trkpt><trkpt lat="14.767316" lon="-91.548516"><ele>3023.705</ele><time>2026-08-28T12:12:49Z</time></trkpt><trkpt lat="14.767287" lon="-91.548446"><ele>3024.725</ele><time>2026-08-28T12:12:52Z</time></trkpt><trkpt lat="14.767221" lon="-91.548452"><ele>3026.509</ele><time>2026-08-28T12:13:04Z</time></trkpt><trkpt lat="14.767222" lon="-91.548519"><ele>3027.089</ele><time>2026-08-28T12:13:10Z</time></trkpt><trkpt lat="14.767193" lon="-91.54848"><ele>3028.725</ele><time>2026-08-28T12:13:18Z</time></trkpt><trkpt lat="14.767142" lon="-91.548488"><ele>3029.439</ele><time>2026-08-28T12:13:24Z</time></trkpt><trkpt lat="14.767143" lon="-91.548415"><ele>3031.113</ele><time>2026-08-28T12:13:29Z</time></trkpt><trkpt lat="14.767105" lon="-91.548445"><ele>3032.084</ele><time>2026-08-28T12:13:33Z</time></trkpt><trkpt lat="14.767066" lon="-91.548411"><ele>3032.555</ele><time>2026-08-28T12:13:46Z</time></trkpt><trkpt lat="14.767029" lon="-91.548362"><ele>3033.629</ele><time>2026-08-28T12:13:47Z</time></trkpt><trkpt lat="14.766968" lon="-91.548393"><ele>3035.199</ele><time>2026-08-28T12:14:05Z</time></trkpt><trkpt lat="14.766977" lon="-91.548441"><ele>3035.380</ele><time>2026-08-28T12:14:13Z</time></trkpt><trkpt lat="14.766987" lon="-91.548487"><ele>3038.534</ele><time>2026-08-28T12:14:18Z</time></trkpt><trkpt lat="14.766998" lon="-91.548536"><ele>3039.455</ele><time>2026-08-28T12:14:27Z</time></trkpt><trkpt lat="14.766972" lon="-91.548586"><ele>3039.710</ele><time>2026-08-28T12:14:39Z</time></trkpt><trkpt lat="14.766968" lon="-91.548633"><ele>3040.709</ele><time>2026-08-28T12:14:45Z</time></trkpt><trkpt lat="14.766994" lon="-91.548672"><ele>3042.555</ele><time>2026-08-28T12:14:53Z</time></trkpt><trkpt lat="14.767001" lon="-91.548729"><ele>3043.941</ele><time>2026-08-28T12:14:59Z</time></trkpt><trkpt lat="14.766999" lon="-91.548776"><ele>3044.755</ele><time>2026-08-28T12:15:04Z</time></trkpt><trkpt lat="14.76699" lon="-91.548824"><ele>3045.539</ele><time>2026-08-28T12:15:14Z</time></trkpt><trkpt lat="14.766958" lon="-91.548857"><ele>3046.050</ele><time>2026-08-28T12:15:30Z</time></trkpt><trkpt lat="14.766899" lon="-91.548871"><ele>3047.091</ele><time>2026-08-28T12:15:36Z</time></trkpt><trkpt lat="14.766859" lon="-91.548838"><ele>3048.815</ele><time>2026-08-28T12:15:48Z</time></trkpt><trkpt lat="14.766866" lon="-91.548886"><ele>3050.295</ele><time>2026-08-28T12:16:03Z</time></trkpt><trkpt lat="14.766905" lon="-91.548911"><ele>3051.246</ele><time>2026-08-28T12:16:11Z</time></trkpt><trkpt lat="14.766896" lon="-91.548962"><ele>3052.766</ele><time>2026-08-28T12:16:16Z</time></trkpt><trkpt lat="14.766868" lon="-91.549009"><ele>3054.029</ele><time>2026-08-28T12:16:22Z</time></trkpt><trkpt lat="14.766823" lon="-91.54902"><ele>3054.921</ele><time>2026-08-28T12:16:30Z</time></trkpt><trkpt lat="14.766765" lon="-91.548992"><ele>3056.009</ele><time>2026-08-28T12:16:34Z</time></trkpt><trkpt lat="14.766733" lon="-91.548951"><ele>3057.468</ele><time>2026-08-28T12:16:41Z</time></trkpt><trkpt lat="14.76669" lon="-91.548976"><ele>3058.554</ele><time>2026-08-28T12:16:53Z</time></trkpt><trkpt lat="14.766669" lon="-91.548933"><ele>3058.958</ele><time>2026-08-28T12:16:56Z</time></trkpt><trkpt lat="14.766622" lon="-91.548909"><ele>3059.152</ele><time>2026-08-28T12:17:02Z</time></trkpt><trkpt lat="14.766665" lon="-91.548924"><ele>3059.333</ele><time>2026-08-28T12:17:04Z</time></trkpt><trkpt lat="14.766601" lon="-91.548932"><ele>3060.014</ele><time>2026-08-28T12:17:12Z</time></trkpt><trkpt lat="14.766595" lon="-91.548988"><ele>3060.868</ele><time>2026-08-28T12:17:35Z</time></trkpt><trkpt lat="14.766545" lon="-91.549026"><ele>3062.638</ele><time>2026-08-28T12:17:46Z</time></trkpt><trkpt lat="14.76661" lon="-91.548958"><ele>3065.099</ele><time>2026-08-28T12:17:47Z</time></trkpt><trkpt lat="14.766572" lon="-91.548989"><ele>3065.664</ele><time>2026-08-28T12:17:50Z</time></trkpt><trkpt lat="14.766518" lon="-91.549003"><ele>3065.806</ele><time>2026-08-28T12:17:54Z</time></trkpt><trkpt lat="14.766469" lon="-91.548981"><ele>3066.616</ele><time>2026-08-28T12:18:00Z</time></trkpt><trkpt lat="14.766421" lon="-91.548974"><ele>3067.709</ele><time>2026-08-28T12:18:03Z</time></trkpt><trkpt lat="14.766458" lon="-91.548935"><ele>3068.558</ele><time>2026-08-28T12:18:12Z</time></trkpt><trkpt lat="14.766421" lon="-91.548972"><ele>3069.564</ele><time>2026-08-28T12:18:22Z</time></trkpt><trkpt lat="14.766433" lon="-91.549022"><ele>3070.178</ele><time>2026-08-28T12:18:28Z</time></trkpt><trkpt lat="14.766474" lon="-91.549043"><ele>3070.672</ele><time>2026-08-28T12:18:39Z</time></trkpt><trkpt lat="14.766466" lon="-91.54909"><ele>3071.163</ele><time>2026-08-28T12:18:47Z</time></trkpt><trkpt lat="14.766452" lon="-91.549137"><ele>3072.314</ele><time>2026-08-28T12:18:53Z</time></trkpt><trkpt lat="14.766394" lon="-91.549151"><ele>3073.958</ele><time>2026-08-28T12:18:56Z</time></trkpt><trkpt lat="14.766401" lon="-91.5491"><ele>3074.828</ele><time>2026-08-28T12:18:58Z</time></trkpt><trkpt lat="14.766356" lon="-91.549084"><ele>3075.099</ele><time>2026-08-28T12:19:03Z</time></trkpt><trkpt lat="14.766313" lon="-91.549114"><ele>3075.222</ele><time>2026-08-28T12:19:24Z</time></trkpt><trkpt lat="14.766276" lon="-91.549145"><ele>3075.462</ele><time>2026-08-28T12:19:37Z</time></trkpt><trkpt lat="14.766224" lon="-91.549145"><ele>3076.708</ele><time>2026-08-28T12:19:39Z</time></trkpt><trkpt lat="14.766174" lon="-91.549148"><ele>3079.609</ele><time>2026-08-28T12:19:51Z</time></trkpt><trkpt lat="14.766191" lon="-91.549095"><ele>3081.694</ele><time>2026-08-28T12:19:55Z</time></trkpt><trkpt lat="14.766149" lon="-91.54913"><ele>3083.150</ele><time>2026-08-28T12:20:00Z</time></trkpt><trkpt lat="14.766104" lon="-91.54915"><ele>3084.754</ele><time>2026-08-28T12:20:19Z</time></trkpt><trkpt lat="14.766099" lon="-91.549199"><ele>3085.638</ele><time>2026-08-28T12:20:32Z</time></trkpt><trkpt lat="14.766117" lon="-91.549246"><ele>3087.199</ele><time>2026-08-28T12:20:39Z</time></trkpt><trkpt lat="14.766082" lon="-91.549282"><ele>3089.090</ele><time>2026-08-28T12:20:57Z</time></trkpt><trkpt lat="14.766041" lon="-91.549304"><ele>3090.214</ele><time>2026-08-28T12:21:05Z</time></trkpt><trkpt lat="14.766087" lon="-91.54932"><ele>3092.594</ele><time>2026-08-28T12:21:07Z</time></trkpt><trkpt lat="14.766067" lon="-91.549268"><ele>3095.395</ele><time>2026-08-28T12:21:08Z</time></trkpt><trkpt lat="14.766044" lon="-91.549321"><ele>3096.344</ele><time>2026-08-28T12:21:09Z</time></trkpt><trkpt lat="14.766017" lon="-91.549258"><ele>3096.605</ele><time>2026-08-28T12:21:18Z</time></trkpt><trkpt lat="14.765976" lon="-91.549282"><ele>3096.815</ele><time>2026-08-28T12:21:24Z</time></trkpt><trkpt lat="14.766019" lon="-91.549307"><ele>3098.709</ele><time>2026-08-28T12:21:25Z</time></trkpt><trkpt lat="14.765944" lon="-91.549298"><ele>3099.656</ele><time>2026-08-28T12:21:29Z</time></trkpt><trkpt lat="14.766017" lon="-91.549234"><ele>3099.732</ele><time>2026-08-28T12:21:35Z</time></trkpt><trkpt lat="14.765969" lon="-91.54923"><ele>3099.986</ele><time>2026-08-28T12:21:37Z</time></trkpt><trkpt lat="14.765944" lon="-91.54927"><ele>3100.080</ele><time>2026-08-28T12:21:47Z</time></trkpt><trkpt lat="14.7659" lon="-91.549295"><ele>3100.491</ele><time>2026-08-28T12:21:56Z</time></trkpt><trkpt lat="14.765921" lon="-91.549339"><ele>3101.032</ele><time>2026-08-28T12:22:15Z</time></trkpt><trkpt lat="14.765892" lon="-91.54939"><ele>3101.776</ele><time>2026-08-28T12:22:24Z</time></trkpt><trkpt lat="14.765851" lon="-91.549432"><ele>3103.886</ele><time>2026-08-28T12:22:39Z</time></trkpt><trkpt lat="14.765826" lon="-91.549474"><ele>3106.087</ele><time>2026-08-28T12:22:55Z</time></trkpt><trkpt lat="14.765809" lon="-91.549518"><ele>3108.279</ele><time>2026-08-28T12:23:03Z</time></trkpt><trkpt lat="14.765808" lon="-91.549567"><ele>3111.005</ele><time>2026-08-28T12:23:11Z</time></trkpt><trkpt lat="14.765752" lon="-91.549585"><ele>3113.025</ele><time>2026-08-28T12:23:20Z</time></trkpt><trkpt lat="14.765741" lon="-91.549538"><ele>3113.909</ele><time>2026-08-28T12:23:29Z</time></trkpt><trkpt lat="14.765711" lon="-91.54958"><ele>3115.089</ele><time>2026-08-28T12:24:22Z</time></trkpt><trkpt lat="14.765719" lon="-91.549631"><ele>3116.975</ele><time>2026-08-28T12:24:29Z</time></trkpt><trkpt lat="14.765675" lon="-91.549663"><ele>3119.729</ele><time>2026-08-28T12:24:35Z</time></trkpt><trkpt lat="14.765694" lon="-91.549713"><ele>3121.733</ele><time>2026-08-28T12:24:42Z</time></trkpt><trkpt lat="14.765626" lon="-91.549708"><ele>3123.584</ele><time>2026-08-28T12:24:53Z</time></trkpt><trkpt lat="14.765609" lon="-91.549649"><ele>3124.595</ele><time>2026-08-28T12:25:00Z</time></trkpt><trkpt lat="14.765555" lon="-91.549663"><ele>3126.389</ele><time>2026-08-28T12:25:10Z</time></trkpt><trkpt lat="14.765611" lon="-91.549678"><ele>3127.699</ele><time>2026-08-28T12:25:12Z</time></trkpt><trkpt lat="14.765564" lon="-91.549679"><ele>3128.620</ele><time>2026-08-28T12:25:35Z</time></trkpt><trkpt lat="14.765576" lon="-91.549633"><ele>3128.852</ele><time>2026-08-28T12:26:31Z</time></trkpt><trkpt lat="14.765576" lon="-91.549682"><ele>3129.253</ele><time>2026-08-28T12:26:51Z</time></trkpt><trkpt lat="14.765662" lon="-91.549673"><ele>3129.408</ele><time>2026-08-28T12:28:00Z</time></trkpt><trkpt lat="14.765612" lon="-91.54966"><ele>3129.409</ele><time>2026-08-28T12:28:01Z</time></trkpt><trkpt lat="14.765598" lon="-91.549707"><ele>3129.477</ele><time>2026-08-28T12:28:54Z</time></trkpt><trkpt lat="14.765542" lon="-91.549702"><ele>3129.463</ele><time>2026-08-28T12:28:55Z</time></trkpt><trkpt lat="14.765639" lon="-91.549706"><ele>3129.767</ele><time>2026-08-28T12:29:16Z</time></trkpt><trkpt lat="14.76559" lon="-91.549695"><ele>3129.831</ele><time>2026-08-28T12:29:43Z</time></trkpt><trkpt lat="14.765604" lon="-91.549648"><ele>3129.822</ele><time>2026-08-28T12:30:22Z</time></trkpt><trkpt lat="14.765632" lon="-91.54969"><ele>3129.883</ele><time>2026-08-28T12:31:33Z</time></trkpt><trkpt lat="14.765569" lon="-91.549678"><ele>3129.777</ele><time>2026-08-28T12:31:38Z</time></trkpt><trkpt lat="14.765567" lon="-91.549631"><ele>3129.717</ele><time>2026-08-28T12:31:41Z</time></trkpt><trkpt lat="14.765554" lon="-91.549584"><ele>3129.788</ele><time>2026-08-28T12:31:48Z</time></trkpt><trkpt lat="14.765506" lon="-91.549572"><ele>3129.799</ele><time>2026-08-28T12:31:55Z</time></trkpt><trkpt lat="14.765456" lon="-91.549534"><ele>3130.307</ele><time>2026-08-28T12:32:01Z</time></trkpt><trkpt lat="14.765421" lon="-91.549494"><ele>3131.727</ele><time>2026-08-28T12:32:12Z</time></trkpt><trkpt lat="14.765391" lon="-91.549537"><ele>3133.209</ele><time>2026-08-28T12:32:14Z</time></trkpt><trkpt lat="14.765377" lon="-91.549583"><ele>3134.911</ele><time>2026-08-28T12:32:28Z</time></trkpt><trkpt lat="14.765349" lon="-91.549632"><ele>3136.167</ele><time>2026-08-28T12:32:35Z</time></trkpt><trkpt lat="14.765324" lon="-91.549708"><ele>3139.641</ele><time>2026-08-28T12:32:44Z</time></trkpt><trkpt lat="14.765293" lon="-91.549748"><ele>3140.785</ele><time>2026-08-28T12:33:16Z</time></trkpt><trkpt lat="14.765292" lon="-91.5498"><ele>3142.416</ele><time>2026-08-28T12:33:27Z</time></trkpt><trkpt lat="14.765285" lon="-91.549867"><ele>3147.617</ele><time>2026-08-28T12:33:34Z</time></trkpt><trkpt lat="14.76526" lon="-91.549911"><ele>3149.021</ele><time>2026-08-28T12:33:48Z</time></trkpt><trkpt lat="14.765261" lon="-91.54997"><ele>3150.241</ele><time>2026-08-28T12:33:58Z</time></trkpt><trkpt lat="14.765211" lon="-91.549962"><ele>3152.742</ele><time>2026-08-28T12:34:11Z</time></trkpt><trkpt lat="14.765188" lon="-91.550011"><ele>3153.388</ele><time>2026-08-28T12:34:21Z</time></trkpt><trkpt lat="14.765168" lon="-91.550062"><ele>3154.124</ele><time>2026-08-28T12:34:38Z</time></trkpt><trkpt lat="14.765193" lon="-91.550108"><ele>3155.726</ele><time>2026-08-28T12:34:46Z</time></trkpt><trkpt lat="14.765168" lon="-91.550165"><ele>3158.009</ele><time>2026-08-28T12:34:56Z</time></trkpt><trkpt lat="14.765128" lon="-91.550138"><ele>3159.570</ele><time>2026-08-28T12:35:03Z</time></trkpt><trkpt lat="14.765078" lon="-91.550134"><ele>3160.496</ele><time>2026-08-28T12:35:09Z</time></trkpt><trkpt lat="14.765036" lon="-91.550184"><ele>3162.710</ele><time>2026-08-28T12:35:20Z</time></trkpt><trkpt lat="14.765086" lon="-91.550201"><ele>3163.614</ele><time>2026-08-28T12:35:33Z</time></trkpt><trkpt lat="14.765083" lon="-91.550247"><ele>3164.455</ele><time>2026-08-28T12:35:43Z</time></trkpt><trkpt lat="14.765015" lon="-91.55022"><ele>3167.676</ele><time>2026-08-28T12:35:50Z</time></trkpt><trkpt lat="14.764975" lon="-91.550188"><ele>3169.410</ele><time>2026-08-28T12:35:53Z</time></trkpt><trkpt lat="14.76498" lon="-91.550236"><ele>3169.860</ele><time>2026-08-28T12:36:21Z</time></trkpt><trkpt lat="14.764953" lon="-91.550274"><ele>3170.561</ele><time>2026-08-28T12:36:31Z</time></trkpt><trkpt lat="14.764899" lon="-91.550296"><ele>3175.176</ele><time>2026-08-28T12:36:43Z</time></trkpt><trkpt lat="14.764883" lon="-91.550344"><ele>3175.790</ele><time>2026-08-28T12:36:49Z</time></trkpt><trkpt lat="14.764869" lon="-91.550392"><ele>3177.219</ele><time>2026-08-28T12:37:00Z</time></trkpt><trkpt lat="14.764865" lon="-91.550442"><ele>3178.509</ele><time>2026-08-28T12:37:14Z</time></trkpt><trkpt lat="14.76485" lon="-91.550487"><ele>3180.149</ele><time>2026-08-28T12:37:24Z</time></trkpt><trkpt lat="14.764815" lon="-91.550522"><ele>3182.465</ele><time>2026-08-28T12:37:33Z</time></trkpt><trkpt lat="14.764767" lon="-91.550546"><ele>3184.539</ele><time>2026-08-28T12:37:35Z</time></trkpt><trkpt lat="14.764819" lon="-91.550512"><ele>3185.883</ele><time>2026-08-28T12:37:39Z</time></trkpt><trkpt lat="14.764776" lon="-91.550533"><ele>3186.324</ele><time>2026-08-28T12:37:47Z</time></trkpt><trkpt lat="14.764724" lon="-91.55051"><ele>3186.715</ele><time>2026-08-28T12:38:05Z</time></trkpt><trkpt lat="14.76468" lon="-91.550488"><ele>3187.569</ele><time>2026-08-28T12:38:09Z</time></trkpt><trkpt lat="14.764697" lon="-91.550533"><ele>3189.519</ele><time>2026-08-28T12:38:14Z</time></trkpt><trkpt lat="14.764655" lon="-91.550497"><ele>3191.220</ele><time>2026-08-28T12:38:15Z</time></trkpt><trkpt lat="14.764667" lon="-91.550448"><ele>3191.948</ele><time>2026-08-28T12:38:24Z</time></trkpt><trkpt lat="14.76462" lon="-91.550412"><ele>3192.361</ele><time>2026-08-28T12:38:42Z</time></trkpt><trkpt lat="14.76461" lon="-91.550459"><ele>3193.017</ele><time>2026-08-28T12:38:46Z</time></trkpt><trkpt lat="14.764578" lon="-91.550492"><ele>3195.009</ele><time>2026-08-28T12:39:05Z</time></trkpt><trkpt lat="14.764533" lon="-91.550471"><ele>3196.926</ele><time>2026-08-28T12:39:11Z</time></trkpt><trkpt lat="14.764515" lon="-91.550515"><ele>3199.162</ele><time>2026-08-28T12:39:29Z</time></trkpt><trkpt lat="14.764508" lon="-91.550465"><ele>3201.456</ele><time>2026-08-28T12:39:35Z</time></trkpt><trkpt lat="14.764455" lon="-91.550459"><ele>3203.460</ele><time>2026-08-28T12:39:39Z</time></trkpt><trkpt lat="14.764443" lon="-91.550509"><ele>3205.591</ele><time>2026-08-28T12:39:53Z</time></trkpt><trkpt lat="14.76441" lon="-91.550542"><ele>3206.652</ele><time>2026-08-28T12:39:56Z</time></trkpt><trkpt lat="14.764341" lon="-91.550533"><ele>3207.826</ele><time>2026-08-28T12:40:08Z</time></trkpt><trkpt lat="14.764387" lon="-91.550555"><ele>3208.866</ele><time>2026-08-28T12:40:14Z</time></trkpt><trkpt lat="14.764374" lon="-91.550603"><ele>3210.067</ele><time>2026-08-28T12:40:26Z</time></trkpt><trkpt lat="14.764334" lon="-91.550632"><ele>3211.589</ele><time>2026-08-28T12:40:37Z</time></trkpt><trkpt lat="14.764266" lon="-91.550607"><ele>3213.506</ele><time>2026-08-28T12:40:58Z</time></trkpt><trkpt lat="14.764254" lon="-91.550534"><ele>3214.126</ele><time>2026-08-28T12:41:01Z</time></trkpt><trkpt lat="14.764296" lon="-91.550563"><ele>3217.109</ele><time>2026-08-28T12:41:16Z</time></trkpt><trkpt lat="14.764321" lon="-91.550517"><ele>3217.170</ele><time>2026-08-28T12:43:07Z</time></trkpt><trkpt lat="14.764284" lon="-91.550559"><ele>3217.166</ele><time>2026-08-28T12:43:10Z</time></trkpt><trkpt lat="14.764236" lon="-91.550523"><ele>3217.390</ele><time>2026-08-28T12:43:27Z</time></trkpt><trkpt lat="14.764265" lon="-91.550562"><ele>3217.424</ele><time>2026-08-28T12:43:30Z</time></trkpt><trkpt lat="14.764222" lon="-91.550579"><ele>3218.445</ele><time>2026-08-28T12:43:36Z</time></trkpt><trkpt lat="14.764178" lon="-91.550547"><ele>3219.666</ele><time>2026-08-28T12:43:49Z</time></trkpt><trkpt lat="14.764257" lon="-91.550525"><ele>3220.820</ele><time>2026-08-28T12:43:56Z</time></trkpt><trkpt lat="14.764171" lon="-91.550456"><ele>3223.720</ele><time>2026-08-28T12:43:57Z</time></trkpt><trkpt lat="14.764222" lon="-91.550583"><ele>3224.831</ele><time>2026-08-28T12:43:58Z</time></trkpt><trkpt lat="14.764187" lon="-91.550541"><ele>3225.029</ele><time>2026-08-28T12:44:00Z</time></trkpt><trkpt lat="14.764079" lon="-91.55057"><ele>3225.400</ele><time>2026-08-28T12:44:02Z</time></trkpt><trkpt lat="14.764164" lon="-91.550492"><ele>3225.920</ele><time>2026-08-28T12:44:03Z</time></trkpt><trkpt lat="14.764212" lon="-91.550483"><ele>3226.109</ele><time>2026-08-28T12:44:04Z</time></trkpt><trkpt lat="14.764184" lon="-91.55053"><ele>3226.244</ele><time>2026-08-28T12:44:05Z</time></trkpt><trkpt lat="14.76416" lon="-91.55049"><ele>3226.350</ele><time>2026-08-28T12:44:07Z</time></trkpt><trkpt lat="14.764095" lon="-91.550434"><ele>3226.524</ele><time>2026-08-28T12:44:09Z</time></trkpt><trkpt lat="14.764012" lon="-91.550478"><ele>3226.818</ele><time>2026-08-28T12:44:10Z</time></trkpt><trkpt lat="14.764077" lon="-91.550484"><ele>3226.919</ele><time>2026-08-28T12:44:11Z</time></trkpt><trkpt lat="14.764088" lon="-91.550406"><ele>3227.030</ele><time>2026-08-28T12:44:19Z</time></trkpt><trkpt lat="14.764065" lon="-91.550364"><ele>3227.854</ele><time>2026-08-28T12:44:20Z</time></trkpt><trkpt lat="14.764058" lon="-91.550299"><ele>3228.534</ele><time>2026-08-28T12:44:26Z</time></trkpt><trkpt lat="14.764033" lon="-91.550257"><ele>3228.775</ele><time>2026-08-28T12:44:27Z</time></trkpt><trkpt lat="14.764067" lon="-91.550323"><ele>3229.979</ele><time>2026-08-28T12:44:28Z</time></trkpt><trkpt lat="14.764027" lon="-91.550391"><ele>3230.005</ele><time>2026-08-28T12:44:29Z</time></trkpt><trkpt lat="14.763994" lon="-91.550439"><ele>3230.125</ele><time>2026-08-28T12:44:35Z</time></trkpt><trkpt lat="14.764021" lon="-91.550401"><ele>3230.209</ele><time>2026-08-28T12:44:36Z</time></trkpt><trkpt lat="14.764068" lon="-91.550398"><ele>3231.489</ele><time>2026-08-28T12:44:42Z</time></trkpt><trkpt lat="14.764028" lon="-91.550366"><ele>3231.565</ele><time>2026-08-28T12:44:43Z</time></trkpt><trkpt lat="14.763985" lon="-91.550383"><ele>3231.759</ele><time>2026-08-28T12:44:51Z</time></trkpt><trkpt lat="14.763933" lon="-91.550509"><ele>3232.983</ele><time>2026-08-28T12:44:56Z</time></trkpt><trkpt lat="14.76393" lon="-91.550383"><ele>3234.854</ele><time>2026-08-28T12:44:57Z</time></trkpt><trkpt lat="14.763976" lon="-91.550334"><ele>3235.135</ele><time>2026-08-28T12:44:59Z</time></trkpt><trkpt lat="14.764024" lon="-91.550342"><ele>3235.259</ele><time>2026-08-28T12:45:01Z</time></trkpt><trkpt lat="14.763981" lon="-91.550371"><ele>3235.449</ele><time>2026-08-28T12:45:02Z</time></trkpt><trkpt lat="14.763929" lon="-91.550355"><ele>3235.550</ele><time>2026-08-28T12:45:03Z</time></trkpt><trkpt lat="14.763973" lon="-91.550378"><ele>3235.617</ele><time>2026-08-28T12:45:05Z</time></trkpt><trkpt lat="14.763913" lon="-91.550393"><ele>3235.787</ele><time>2026-08-28T12:45:09Z</time></trkpt><trkpt lat="14.763868" lon="-91.550372"><ele>3235.915</ele><time>2026-08-28T12:45:16Z</time></trkpt><trkpt lat="14.763935" lon="-91.550317"><ele>3236.609</ele><time>2026-08-28T12:45:24Z</time></trkpt><trkpt lat="14.76389" lon="-91.550334"><ele>3237.683</ele><time>2026-08-28T12:45:25Z</time></trkpt><trkpt lat="14.76392" lon="-91.550298"><ele>3238.629</ele><time>2026-08-28T12:45:27Z</time></trkpt><trkpt lat="14.763898" lon="-91.550252"><ele>3238.733</ele><time>2026-08-28T12:45:37Z</time></trkpt><trkpt lat="14.763945" lon="-91.550209"><ele>3238.987</ele><time>2026-08-28T12:45:41Z</time></trkpt><trkpt lat="14.763863" lon="-91.550212"><ele>3240.118</ele><time>2026-08-28T12:45:45Z</time></trkpt><trkpt lat="14.763839" lon="-91.550165"><ele>3241.269</ele><time>2026-08-28T12:45:49Z</time></trkpt><trkpt lat="14.763757" lon="-91.550223"><ele>3242.173</ele><time>2026-08-28T12:45:50Z</time></trkpt><trkpt lat="14.763793" lon="-91.550254"><ele>3242.463</ele><time>2026-08-28T12:45:54Z</time></trkpt><trkpt lat="14.763764" lon="-91.55029"><ele>3242.434</ele><time>2026-08-28T12:45:55Z</time></trkpt><trkpt lat="14.763816" lon="-91.55028"><ele>3243.394</ele><time>2026-08-28T12:45:59Z</time></trkpt><trkpt lat="14.763773" lon="-91.550318"><ele>3243.657</ele><time>2026-08-28T12:46:05Z</time></trkpt><trkpt lat="14.76371" lon="-91.550301"><ele>3244.022</ele><time>2026-08-28T12:46:15Z</time></trkpt><trkpt lat="14.763724" lon="-91.55035"><ele>3244.509</ele><time>2026-08-28T12:46:22Z</time></trkpt><trkpt lat="14.763682" lon="-91.550313"><ele>3246.231</ele><time>2026-08-28T12:46:24Z</time></trkpt><trkpt lat="14.763654" lon="-91.550361"><ele>3246.997</ele><time>2026-08-28T12:46:28Z</time></trkpt><trkpt lat="14.763714" lon="-91.550322"><ele>3247.291</ele><time>2026-08-28T12:46:29Z</time></trkpt><trkpt lat="14.763687" lon="-91.550267"><ele>3247.865</ele><time>2026-08-28T12:46:32Z</time></trkpt><trkpt lat="14.763728" lon="-91.550198"><ele>3247.946</ele><time>2026-08-28T12:46:33Z</time></trkpt><trkpt lat="14.763675" lon="-91.550224"><ele>3248.227</ele><time>2026-08-28T12:46:35Z</time></trkpt><trkpt lat="14.763721" lon="-91.55026"><ele>3248.451</ele><time>2026-08-28T12:46:42Z</time></trkpt><trkpt lat="14.763669" lon="-91.550206"><ele>3248.891</ele><time>2026-08-28T12:46:45Z</time></trkpt><trkpt lat="14.763625" lon="-91.550277"><ele>3249.912</ele><time>2026-08-28T12:46:47Z</time></trkpt><trkpt lat="14.763673" lon="-91.550261"><ele>3250.149</ele><time>2026-08-28T12:46:48Z</time></trkpt><trkpt lat="14.763596" lon="-91.550322"><ele>3250.602</ele><time>2026-08-28T12:47:25Z</time></trkpt><trkpt lat="14.76365" lon="-91.550339"><ele>3252.122</ele><time>2026-08-28T12:47:34Z</time></trkpt><trkpt lat="14.763706" lon="-91.550307"><ele>3253.509</ele><time>2026-08-28T12:47:36Z</time></trkpt><trkpt lat="14.76366" lon="-91.550319"><ele>3255.696</ele><time>2026-08-28T12:47:38Z</time></trkpt><trkpt lat="14.763615" lon="-91.550309"><ele>3255.652</ele><time>2026-08-28T12:47:51Z</time></trkpt><trkpt lat="14.763605" lon="-91.550247"><ele>3255.716</ele><time>2026-08-28T12:47:53Z</time></trkpt><trkpt lat="14.763555" lon="-91.550229"><ele>3255.930</ele><time>2026-08-28T12:48:09Z</time></trkpt><trkpt lat="14.763506" lon="-91.550198"><ele>3255.941</ele><time>2026-08-28T12:48:12Z</time></trkpt><trkpt lat="14.763626" lon="-91.550162"><ele>3257.922</ele><time>2026-08-28T12:48:18Z</time></trkpt><trkpt lat="14.763571" lon="-91.550144"><ele>3258.726</ele><time>2026-08-28T12:48:23Z</time></trkpt><trkpt lat="14.763527" lon="-91.550111"><ele>3259.456</ele><time>2026-08-28T12:48:28Z</time></trkpt><trkpt lat="14.763449" lon="-91.550096"><ele>3260.097</ele><time>2026-08-28T12:48:29Z</time></trkpt><trkpt lat="14.763499" lon="-91.55011"><ele>3260.397</ele><time>2026-08-28T12:48:33Z</time></trkpt><trkpt lat="14.763454" lon="-91.55009"><ele>3260.623</ele><time>2026-08-28T12:48:37Z</time></trkpt><trkpt lat="14.76342" lon="-91.550018"><ele>3261.825</ele><time>2026-08-28T12:48:42Z</time></trkpt><trkpt lat="14.763472" lon="-91.550023"><ele>3262.309</ele><time>2026-08-28T12:48:43Z</time></trkpt><trkpt lat="14.763551" lon="-91.550008"><ele>3262.911</ele><time>2026-08-28T12:48:46Z</time></trkpt><trkpt lat="14.763514" lon="-91.550041"><ele>3263.137</ele><time>2026-08-28T12:48:51Z</time></trkpt><trkpt lat="14.763457" lon="-91.550014"><ele>3263.561</ele><time>2026-08-28T12:48:54Z</time></trkpt><trkpt lat="14.763417" lon="-91.550042"><ele>3263.785</ele><time>2026-08-28T12:48:55Z</time></trkpt><trkpt lat="14.763363" lon="-91.550107"><ele>3264.176</ele><time>2026-08-28T12:49:01Z</time></trkpt><trkpt lat="14.763326" lon="-91.550137"><ele>3264.367</ele><time>2026-08-28T12:49:03Z</time></trkpt><trkpt lat="14.763357" lon="-91.550176"><ele>3265.161</ele><time>2026-08-28T12:49:11Z</time></trkpt><trkpt lat="14.763314" lon="-91.550154"><ele>3265.611</ele><time>2026-08-28T12:49:12Z</time></trkpt><trkpt lat="14.763347" lon="-91.550084"><ele>3266.862</ele><time>2026-08-28T12:49:14Z</time></trkpt><trkpt lat="14.763359" lon="-91.55003"><ele>3266.985</ele><time>2026-08-28T12:49:16Z</time></trkpt><trkpt lat="14.763396" lon="-91.54998"><ele>3267.389</ele><time>2026-08-28T12:49:18Z</time></trkpt><trkpt lat="14.763352" lon="-91.550023"><ele>3267.617</ele><time>2026-08-28T12:49:19Z</time></trkpt><trkpt lat="14.763284" lon="-91.550055"><ele>3268.109</ele><time>2026-08-28T12:49:24Z</time></trkpt><trkpt lat="14.763328" lon="-91.550067"><ele>3268.330</ele><time>2026-08-28T12:49:26Z</time></trkpt><trkpt lat="14.763358" lon="-91.549999"><ele>3269.216</ele><time>2026-08-28T12:49:27Z</time></trkpt><trkpt lat="14.763269" lon="-91.55"><ele>3269.580</ele><time>2026-08-28T12:49:28Z</time></trkpt><trkpt lat="14.763157" lon="-91.550012"><ele>3269.964</ele><time>2026-08-28T12:49:39Z</time></trkpt><trkpt lat="14.763201" lon="-91.549997"><ele>3270.315</ele><time>2026-08-28T12:49:42Z</time></trkpt><trkpt lat="14.763192" lon="-91.549944"><ele>3270.836</ele><time>2026-08-28T12:49:48Z</time></trkpt><trkpt lat="14.763144" lon="-91.54996"><ele>3270.970</ele><time>2026-08-28T12:49:52Z</time></trkpt><trkpt lat="14.763176" lon="-91.55"><ele>3271.720</ele><time>2026-08-28T12:49:56Z</time></trkpt><trkpt lat="14.763228" lon="-91.550091"><ele>3272.781</ele><time>2026-08-28T12:50:04Z</time></trkpt><trkpt lat="14.763178" lon="-91.550097"><ele>3273.351</ele><time>2026-08-28T12:50:05Z</time></trkpt><trkpt lat="14.763224" lon="-91.550095"><ele>3274.701</ele><time>2026-08-28T12:50:07Z</time></trkpt><trkpt lat="14.763178" lon="-91.550067"><ele>3274.911</ele><time>2026-08-28T12:50:23Z</time></trkpt><trkpt lat="14.763134" lon="-91.550093"><ele>3275.309</ele><time>2026-08-28T12:50:28Z</time></trkpt><trkpt lat="14.763116" lon="-91.550049"><ele>3276.647</ele><time>2026-08-28T12:50:34Z</time></trkpt><trkpt lat="14.763069" lon="-91.550047"><ele>3278.523</ele><time>2026-08-28T12:50:37Z</time></trkpt><trkpt lat="14.763132" lon="-91.550056"><ele>3279.697</ele><time>2026-08-28T12:50:39Z</time></trkpt><trkpt lat="14.763068" lon="-91.550082"><ele>3280.571</ele><time>2026-08-28T12:50:43Z</time></trkpt><trkpt lat="14.763106" lon="-91.550132"><ele>3280.792</ele><time>2026-08-28T12:50:46Z</time></trkpt><trkpt lat="14.763106" lon="-91.550079"><ele>3281.383</ele><time>2026-08-28T12:50:59Z</time></trkpt><trkpt lat="14.763119" lon="-91.550034"><ele>3281.767</ele><time>2026-08-28T12:51:04Z</time></trkpt><trkpt lat="14.763082" lon="-91.550125"><ele>3283.527</ele><time>2026-08-28T12:51:07Z</time></trkpt><trkpt lat="14.762981" lon="-91.550064"><ele>3284.838</ele><time>2026-08-28T12:51:09Z</time></trkpt><trkpt lat="14.763115" lon="-91.550023"><ele>3285.227</ele><time>2026-08-28T12:51:11Z</time></trkpt><trkpt lat="14.76305" lon="-91.550059"><ele>3285.368</ele><time>2026-08-28T12:51:13Z</time></trkpt><trkpt lat="14.763124" lon="-91.550062"><ele>3285.314</ele><time>2026-08-28T12:51:22Z</time></trkpt><trkpt lat="14.763072" lon="-91.550071"><ele>3285.809</ele><time>2026-08-28T12:51:23Z</time></trkpt><trkpt lat="14.763037" lon="-91.549994"><ele>3286.324</ele><time>2026-08-28T12:51:24Z</time></trkpt><trkpt lat="14.763084" lon="-91.550023"><ele>3286.430</ele><time>2026-08-28T12:51:25Z</time></trkpt><trkpt lat="14.763139" lon="-91.550002"><ele>3286.694</ele><time>2026-08-28T12:51:26Z</time></trkpt><trkpt lat="14.763038" lon="-91.550039"><ele>3286.978</ele><time>2026-08-28T12:51:27Z</time></trkpt><trkpt lat="14.762974" lon="-91.550007"><ele>3287.199</ele><time>2026-08-28T12:51:29Z</time></trkpt><trkpt lat="14.763011" lon="-91.550036"><ele>3287.470</ele><time>2026-08-28T12:51:32Z</time></trkpt><trkpt lat="14.762959" lon="-91.550038"><ele>3287.934</ele><time>2026-08-28T12:51:36Z</time></trkpt><trkpt lat="14.762987" lon="-91.550074"><ele>3288.114</ele><time>2026-08-28T12:51:40Z</time></trkpt><trkpt lat="14.762963" lon="-91.550033"><ele>3288.495</ele><time>2026-08-28T12:51:41Z</time></trkpt><trkpt lat="14.762934" lon="-91.549954"><ele>3289.319</ele><time>2026-08-28T12:51:43Z</time></trkpt><trkpt lat="14.762928" lon="-91.550004"><ele>3289.509</ele><time>2026-08-28T12:51:48Z</time></trkpt><trkpt lat="14.762922" lon="-91.550055"><ele>3289.919</ele><time>2026-08-28T12:51:49Z</time></trkpt><trkpt lat="14.762936" lon="-91.549992"><ele>3290.909</ele><time>2026-08-28T12:51:53Z</time></trkpt><trkpt lat="14.762961" lon="-91.549949"><ele>3291.063</ele><time>2026-08-28T12:52:00Z</time></trkpt><trkpt lat="14.762919" lon="-91.549981"><ele>3291.279</ele><time>2026-08-28T12:52:04Z</time></trkpt><trkpt lat="14.7629" lon="-91.549938"><ele>3291.973</ele><time>2026-08-28T12:52:11Z</time></trkpt><trkpt lat="14.76285" lon="-91.549889"><ele>3292.647</ele><time>2026-08-28T12:52:15Z</time></trkpt><trkpt lat="14.76286" lon="-91.549954"><ele>3293.778</ele><time>2026-08-28T12:52:17Z</time></trkpt><trkpt lat="14.76301" lon="-91.549972"><ele>3294.379</ele><time>2026-08-28T12:52:19Z</time></trkpt><trkpt lat="14.762955" lon="-91.549934"><ele>3294.513</ele><time>2026-08-28T12:52:20Z</time></trkpt><trkpt lat="14.762905" lon="-91.549884"><ele>3294.613</ele><time>2026-08-28T12:52:23Z</time></trkpt><trkpt lat="14.762917" lon="-91.549833"><ele>3294.874</ele><time>2026-08-28T12:52:25Z</time></trkpt><trkpt lat="14.762857" lon="-91.54984"><ele>3295.061</ele><time>2026-08-28T12:52:31Z</time></trkpt><trkpt lat="14.76288" lon="-91.549909"><ele>3295.421</ele><time>2026-08-28T12:52:42Z</time></trkpt><trkpt lat="14.762821" lon="-91.549899"><ele>3295.813</ele><time>2026-08-28T12:52:46Z</time></trkpt><trkpt lat="14.762777" lon="-91.549879"><ele>3297.409</ele><time>2026-08-28T12:52:49Z</time></trkpt><trkpt lat="14.762728" lon="-91.549888"><ele>3297.478</ele><time>2026-08-28T12:53:13Z</time></trkpt><trkpt lat="14.762688" lon="-91.549853"><ele>3297.984</ele><time>2026-08-28T12:53:16Z</time></trkpt><trkpt lat="14.762625" lon="-91.549835"><ele>3300.648</ele><time>2026-08-28T12:53:26Z</time></trkpt><trkpt lat="14.762685" lon="-91.549798"><ele>3301.442</ele><time>2026-08-28T12:53:28Z</time></trkpt><trkpt lat="14.762661" lon="-91.549839"><ele>3303.173</ele><time>2026-08-28T12:53:39Z</time></trkpt><trkpt lat="14.762715" lon="-91.549851"><ele>3303.474</ele><time>2026-08-28T12:53:41Z</time></trkpt><trkpt lat="14.76267" lon="-91.549824"><ele>3305.028</ele><time>2026-08-28T12:53:45Z</time></trkpt><trkpt lat="14.762627" lon="-91.549838"><ele>3305.128</ele><time>2026-08-28T12:53:49Z</time></trkpt><trkpt lat="14.762576" lon="-91.549839"><ele>3305.619</ele><time>2026-08-28T12:53:55Z</time></trkpt><trkpt lat="14.762632" lon="-91.549822"><ele>3306.492</ele><time>2026-08-28T12:53:58Z</time></trkpt><trkpt lat="14.762596" lon="-91.549789"><ele>3307.173</ele><time>2026-08-28T12:54:00Z</time></trkpt><trkpt lat="14.762622" lon="-91.549866"><ele>3307.920</ele><time>2026-08-28T12:54:03Z</time></trkpt><trkpt lat="14.762567" lon="-91.549895"><ele>3308.509</ele><time>2026-08-28T12:54:06Z</time></trkpt><trkpt lat="14.762629" lon="-91.549945"><ele>3309.281</ele><time>2026-08-28T12:54:09Z</time></trkpt><trkpt lat="14.762584" lon="-91.549929"><ele>3309.447</ele><time>2026-08-28T12:54:26Z</time></trkpt><trkpt lat="14.762555" lon="-91.54997"><ele>3309.731</ele><time>2026-08-28T12:54:27Z</time></trkpt><trkpt lat="14.762624" lon="-91.549984"><ele>3309.855</ele><time>2026-08-28T12:54:31Z</time></trkpt><trkpt lat="14.762656" lon="-91.549945"><ele>3309.886</ele><time>2026-08-28T12:54:34Z</time></trkpt><trkpt lat="14.762679" lon="-91.549989"><ele>3310.027</ele><time>2026-08-28T12:54:37Z</time></trkpt><trkpt lat="14.762638" lon="-91.549964"><ele>3310.561</ele><time>2026-08-28T12:54:39Z</time></trkpt><trkpt lat="14.762587" lon="-91.549997"><ele>3311.431</ele><time>2026-08-28T12:54:40Z</time></trkpt><trkpt lat="14.762624" lon="-91.550025"><ele>3311.592</ele><time>2026-08-28T12:54:44Z</time></trkpt><trkpt lat="14.762611" lon="-91.55007"><ele>3311.734</ele><time>2026-08-28T12:54:52Z</time></trkpt><trkpt lat="14.762545" lon="-91.550055"><ele>3312.055</ele><time>2026-08-28T12:55:03Z</time></trkpt><trkpt lat="14.762517" lon="-91.550109"><ele>3313.310</ele><time>2026-08-28T12:55:16Z</time></trkpt><trkpt lat="14.762564" lon="-91.550131"><ele>3314.109</ele><time>2026-08-28T12:55:29Z</time></trkpt><trkpt lat="14.762538" lon="-91.55018"><ele>3317.335</ele><time>2026-08-28T12:55:31Z</time></trkpt><trkpt lat="14.76248" lon="-91.550186"><ele>3319.491</ele><time>2026-08-28T12:55:39Z</time></trkpt><trkpt lat="14.762528" lon="-91.550223"><ele>3319.725</ele><time>2026-08-28T12:55:45Z</time></trkpt><trkpt lat="14.76251" lon="-91.550272"><ele>3321.859</ele><time>2026-08-28T12:55:47Z</time></trkpt><trkpt lat="14.762482" lon="-91.550328"><ele>3322.970</ele><time>2026-08-28T12:55:53Z</time></trkpt><trkpt lat="14.762475" lon="-91.550392"><ele>3323.221</ele><time>2026-08-28T12:55:55Z</time></trkpt><trkpt lat="14.762471" lon="-91.550238"><ele>3324.045</ele><time>2026-08-28T12:55:56Z</time></trkpt><trkpt lat="14.762469" lon="-91.550184"><ele>3324.025</ele><time>2026-08-28T12:55:58Z</time></trkpt><trkpt lat="14.762444" lon="-91.550136"><ele>3324.266</ele><time>2026-08-28T12:56:04Z</time></trkpt><trkpt lat="14.762408" lon="-91.550095"><ele>3324.866</ele><time>2026-08-28T12:56:08Z</time></trkpt><trkpt lat="14.762454" lon="-91.550347"><ele>3326.029</ele><time>2026-08-28T12:56:10Z</time></trkpt><trkpt lat="14.76233" lon="-91.550054"><ele>3326.521</ele><time>2026-08-28T12:56:11Z</time></trkpt><trkpt lat="14.762441" lon="-91.550255"><ele>3326.609</ele><time>2026-08-28T12:56:12Z</time></trkpt><trkpt lat="14.76239" lon="-91.550287"><ele>3327.148</ele><time>2026-08-28T12:56:16Z</time></trkpt><trkpt lat="14.762324" lon="-91.550314"><ele>3327.414</ele><time>2026-08-28T12:56:22Z</time></trkpt><trkpt lat="14.762346" lon="-91.550264"><ele>3327.988</ele><time>2026-08-28T12:56:30Z</time></trkpt><trkpt lat="14.762421" lon="-91.55023"><ele>3328.482</ele><time>2026-08-28T12:56:40Z</time></trkpt><trkpt lat="14.762432" lon="-91.550154"><ele>3328.953</ele><time>2026-08-28T12:57:03Z</time></trkpt><trkpt lat="14.762391" lon="-91.550176"><ele>3328.994</ele><time>2026-08-28T12:57:05Z</time></trkpt><trkpt lat="14.762329" lon="-91.550175"><ele>3329.058</ele><time>2026-08-28T12:57:09Z</time></trkpt><trkpt lat="14.762353" lon="-91.550129"><ele>3329.168</ele><time>2026-08-28T12:57:14Z</time></trkpt><trkpt lat="14.762291" lon="-91.550153"><ele>3329.439</ele><time>2026-08-28T12:57:22Z</time></trkpt><trkpt lat="14.762268" lon="-91.5501"><ele>3329.687</ele><time>2026-08-28T12:57:26Z</time></trkpt><trkpt lat="14.762273" lon="-91.550041"><ele>3331.142</ele><time>2026-08-28T12:57:36Z</time></trkpt><trkpt lat="14.76225" lon="-91.549993"><ele>3332.126</ele><time>2026-08-28T12:57:42Z</time></trkpt><trkpt lat="14.76221" lon="-91.549961"><ele>3334.109</ele><time>2026-08-28T12:58:04Z</time></trkpt><trkpt lat="14.762116" lon="-91.549975"><ele>3334.680</ele><time>2026-08-28T12:58:07Z</time></trkpt><trkpt lat="14.762077" lon="-91.550009"><ele>3337.016</ele><time>2026-08-28T12:58:10Z</time></trkpt><trkpt lat="14.762084" lon="-91.549955"><ele>3337.680</ele><time>2026-08-28T12:58:17Z</time></trkpt><trkpt lat="14.762126" lon="-91.549874"><ele>3338.594</ele><time>2026-08-28T12:58:23Z</time></trkpt><trkpt lat="14.76206" lon="-91.54991"><ele>3339.065</ele><time>2026-08-28T12:58:26Z</time></trkpt><trkpt lat="14.761991" lon="-91.549937"><ele>3340.316</ele><time>2026-08-28T12:58:46Z</time></trkpt><trkpt lat="14.762" lon="-91.549885"><ele>3342.160</ele><time>2026-08-28T12:58:47Z</time></trkpt><trkpt lat="14.762032" lon="-91.549922"><ele>3343.710</ele><time>2026-08-28T12:58:49Z</time></trkpt><trkpt lat="14.762006" lon="-91.549878"><ele>3343.981</ele><time>2026-08-28T12:58:55Z</time></trkpt><trkpt lat="14.762027" lon="-91.549803"><ele>3344.246</ele><time>2026-08-28T12:58:57Z</time></trkpt><trkpt lat="14.761982" lon="-91.549812"><ele>3345.188</ele><time>2026-08-28T12:59:02Z</time></trkpt><trkpt lat="14.762025" lon="-91.549837"><ele>3345.216</ele><time>2026-08-28T12:59:06Z</time></trkpt><trkpt lat="14.761963" lon="-91.549802"><ele>3346.109</ele><time>2026-08-28T12:59:08Z</time></trkpt><trkpt lat="14.761967" lon="-91.549855"><ele>3347.186</ele><time>2026-08-28T12:59:09Z</time></trkpt><trkpt lat="14.761924" lon="-91.549801"><ele>3347.352</ele><time>2026-08-28T12:59:12Z</time></trkpt><trkpt lat="14.761913" lon="-91.549738"><ele>3347.486</ele><time>2026-08-28T12:59:16Z</time></trkpt><trkpt lat="14.761915" lon="-91.549683"><ele>3347.730</ele><time>2026-08-28T12:59:17Z</time></trkpt><trkpt lat="14.761901" lon="-91.549752"><ele>3348.091</ele><time>2026-08-28T12:59:20Z</time></trkpt><trkpt lat="14.761859" lon="-91.549777"><ele>3348.032</ele><time>2026-08-28T12:59:30Z</time></trkpt><trkpt lat="14.76188" lon="-91.549725"><ele>3348.326</ele><time>2026-08-28T12:59:54Z</time></trkpt><trkpt lat="14.761809" lon="-91.549783"><ele>3350.016</ele><time>2026-08-28T13:00:00Z</time></trkpt><trkpt lat="14.761819" lon="-91.549842"><ele>3350.647</ele><time>2026-08-28T13:00:04Z</time></trkpt><trkpt lat="14.761763" lon="-91.549855"><ele>3350.722</ele><time>2026-08-28T13:00:17Z</time></trkpt><trkpt lat="14.76172" lon="-91.549824"><ele>3351.762</ele><time>2026-08-28T13:00:23Z</time></trkpt><trkpt lat="14.761734" lon="-91.549755"><ele>3354.208</ele><time>2026-08-28T13:00:35Z</time></trkpt><trkpt lat="14.761659" lon="-91.549772"><ele>3355.109</ele><time>2026-08-28T13:00:38Z</time></trkpt><trkpt lat="14.761655" lon="-91.549725"><ele>3357.094</ele><time>2026-08-28T13:00:48Z</time></trkpt><trkpt lat="14.761611" lon="-91.549706"><ele>3357.320</ele><time>2026-08-28T13:00:53Z</time></trkpt><trkpt lat="14.761615" lon="-91.549633"><ele>3357.974</ele><time>2026-08-28T13:00:55Z</time></trkpt><trkpt lat="14.761565" lon="-91.549661"><ele>3358.488</ele><time>2026-08-28T13:01:08Z</time></trkpt><trkpt lat="14.761518" lon="-91.549667"><ele>3358.689</ele><time>2026-08-28T13:01:11Z</time></trkpt><trkpt lat="14.761524" lon="-91.549615"><ele>3360.320</ele><time>2026-08-28T13:01:24Z</time></trkpt><trkpt lat="14.761446" lon="-91.549553"><ele>3360.644</ele><time>2026-08-28T13:01:33Z</time></trkpt><trkpt lat="14.761515" lon="-91.549559"><ele>3361.464</ele><time>2026-08-28T13:01:34Z</time></trkpt><trkpt lat="14.761537" lon="-91.5496"><ele>3362.735</ele><time>2026-08-28T13:01:46Z</time></trkpt><trkpt lat="14.761492" lon="-91.549603"><ele>3363.076</ele><time>2026-08-28T13:01:49Z</time></trkpt><trkpt lat="14.761433" lon="-91.549602"><ele>3365.090</ele><time>2026-08-28T13:01:52Z</time></trkpt><trkpt lat="14.761456" lon="-91.54956"><ele>3365.319</ele><time>2026-08-28T13:01:57Z</time></trkpt><trkpt lat="14.761445" lon="-91.54961"><ele>3365.909</ele><time>2026-08-28T13:02:08Z</time></trkpt><trkpt lat="14.761391" lon="-91.549586"><ele>3366.529</ele><time>2026-08-28T13:02:10Z</time></trkpt><trkpt lat="14.761383" lon="-91.549533"><ele>3367.655</ele><time>2026-08-28T13:02:18Z</time></trkpt><trkpt lat="14.761423" lon="-91.549567"><ele>3368.499</ele><time>2026-08-28T13:02:24Z</time></trkpt><trkpt lat="14.761371" lon="-91.549598"><ele>3369.623</ele><time>2026-08-28T13:02:27Z</time></trkpt><trkpt lat="14.76139" lon="-91.549656"><ele>3370.944</ele><time>2026-08-28T13:02:34Z</time></trkpt><trkpt lat="14.761317" lon="-91.549631"><ele>3371.215</ele><time>2026-08-28T13:02:51Z</time></trkpt><trkpt lat="14.761365" lon="-91.54961"><ele>3371.639</ele><time>2026-08-28T13:02:53Z</time></trkpt><trkpt lat="14.761301" lon="-91.549597"><ele>3373.859</ele><time>2026-08-28T13:03:04Z</time></trkpt><trkpt lat="14.761261" lon="-91.549624"><ele>3374.440</ele><time>2026-08-28T13:03:09Z</time></trkpt><trkpt lat="14.761215" lon="-91.549665"><ele>3376.255</ele><time>2026-08-28T13:04:00Z</time></trkpt><trkpt lat="14.761234" lon="-91.549621"><ele>3377.207</ele><time>2026-08-28T13:04:03Z</time></trkpt><trkpt lat="14.761194" lon="-91.549652"><ele>3377.417</ele><time>2026-08-28T13:04:15Z</time></trkpt><trkpt lat="14.76124" lon="-91.549609"><ele>3377.409</ele><time>2026-08-28T13:05:10Z</time></trkpt><trkpt lat="14.761281" lon="-91.549587"><ele>3377.477</ele><time>2026-08-28T13:05:26Z</time></trkpt><trkpt lat="14.761244" lon="-91.549618"><ele>3377.443</ele><time>2026-08-28T13:06:16Z</time></trkpt><trkpt lat="14.761283" lon="-91.549591"><ele>3377.297</ele><time>2026-08-28T13:06:25Z</time></trkpt><trkpt lat="14.761257" lon="-91.549631"><ele>3377.291</ele><time>2026-08-28T13:07:48Z</time></trkpt><trkpt lat="14.76124" lon="-91.549579"><ele>3377.232</ele><time>2026-08-28T13:08:08Z</time></trkpt><trkpt lat="14.761196" lon="-91.54956"><ele>3377.233</ele><time>2026-08-28T13:08:26Z</time></trkpt><trkpt lat="14.761239" lon="-91.549538"><ele>3377.627</ele><time>2026-08-28T13:08:30Z</time></trkpt><trkpt lat="14.761211" lon="-91.549581"><ele>3378.697</ele><time>2026-08-28T13:09:23Z</time></trkpt><trkpt lat="14.761162" lon="-91.549577"><ele>3379.578</ele><time>2026-08-28T13:09:38Z</time></trkpt><trkpt lat="14.761147" lon="-91.549525"><ele>3381.063</ele><time>2026-08-28T13:09:50Z</time></trkpt><trkpt lat="14.761087" lon="-91.549516"><ele>3383.744</ele><time>2026-08-28T13:10:09Z</time></trkpt><trkpt lat="14.761128" lon="-91.549558"><ele>3385.618</ele><time>2026-08-28T13:10:28Z</time></trkpt><trkpt lat="14.761071" lon="-91.549563"><ele>3389.009</ele><time>2026-08-28T13:10:40Z</time></trkpt><trkpt lat="14.761007" lon="-91.549583"><ele>3391.858</ele><time>2026-08-28T13:11:20Z</time></trkpt><trkpt lat="14.761063" lon="-91.549572"><ele>3392.664</ele><time>2026-08-28T13:11:23Z</time></trkpt><trkpt lat="14.761065" lon="-91.549467"><ele>3393.968</ele><time>2026-08-28T13:11:27Z</time></trkpt><trkpt lat="14.761116" lon="-91.549476"><ele>3394.762</ele><time>2026-08-28T13:11:31Z</time></trkpt><trkpt lat="14.761013" lon="-91.549506"><ele>3395.563</ele><time>2026-08-28T13:11:32Z</time></trkpt><trkpt lat="14.761" lon="-91.549555"><ele>3396.024</ele><time>2026-08-28T13:11:56Z</time></trkpt><trkpt lat="14.760995" lon="-91.549474"><ele>3398.098</ele><time>2026-08-28T13:11:59Z</time></trkpt><trkpt lat="14.760986" lon="-91.549524"><ele>3400.158</ele><time>2026-08-28T13:12:06Z</time></trkpt><trkpt lat="14.760936" lon="-91.549535"><ele>3400.469</ele><time>2026-08-28T13:12:16Z</time></trkpt><trkpt lat="14.760919" lon="-91.549607"><ele>3401.859</ele><time>2026-08-28T13:12:20Z</time></trkpt><trkpt lat="14.760973" lon="-91.549593"><ele>3402.103</ele><time>2026-08-28T13:12:22Z</time></trkpt><trkpt lat="14.760957" lon="-91.549646"><ele>3402.823</ele><time>2026-08-28T13:12:35Z</time></trkpt><trkpt lat="14.760914" lon="-91.54963"><ele>3403.209</ele><time>2026-08-28T13:12:45Z</time></trkpt><trkpt lat="14.760893" lon="-91.549673"><ele>3404.957</ele><time>2026-08-28T13:13:22Z</time></trkpt><trkpt lat="14.760848" lon="-91.549689"><ele>3405.743</ele><time>2026-08-28T13:13:35Z</time></trkpt><trkpt lat="14.760806" lon="-91.549708"><ele>3407.957</ele><time>2026-08-28T13:14:02Z</time></trkpt><trkpt lat="14.760773" lon="-91.549745"><ele>3410.111</ele><time>2026-08-28T13:14:33Z</time></trkpt><trkpt lat="14.760768" lon="-91.549792"><ele>3412.862</ele><time>2026-08-28T13:14:51Z</time></trkpt><trkpt lat="14.760739" lon="-91.54974"><ele>3416.353</ele><time>2026-08-28T13:14:57Z</time></trkpt><trkpt lat="14.760708" lon="-91.549789"><ele>3419.267</ele><time>2026-08-28T13:15:30Z</time></trkpt><trkpt lat="14.760651" lon="-91.549792"><ele>3421.017</ele><time>2026-08-28T13:16:20Z</time></trkpt><trkpt lat="14.760688" lon="-91.549758"><ele>3423.268</ele><time>2026-08-28T13:16:26Z</time></trkpt><trkpt lat="14.760703" lon="-91.549711"><ele>3424.939</ele><time>2026-08-28T13:16:28Z</time></trkpt><trkpt lat="14.760655" lon="-91.549737"><ele>3425.601</ele><time>2026-08-28T13:16:33Z</time></trkpt><trkpt lat="14.760648" lon="-91.549786"><ele>3426.421</ele><time>2026-08-28T13:16:52Z</time></trkpt><trkpt lat="14.760613" lon="-91.549744"><ele>3426.909</ele><time>2026-08-28T13:16:59Z</time></trkpt><trkpt lat="14.760601" lon="-91.54979"><ele>3427.445</ele><time>2026-08-28T13:17:06Z</time></trkpt><trkpt lat="14.760558" lon="-91.549768"><ele>3428.381</ele><time>2026-08-28T13:17:10Z</time></trkpt><trkpt lat="14.760528" lon="-91.54981"><ele>3429.525</ele><time>2026-08-28T13:17:37Z</time></trkpt><trkpt lat="14.760539" lon="-91.549856"><ele>3430.389</ele><time>2026-08-28T13:17:41Z</time></trkpt><trkpt lat="14.760549" lon="-91.54981"><ele>3432.420</ele><time>2026-08-28T13:18:24Z</time></trkpt><trkpt lat="14.760546" lon="-91.54986"><ele>3434.381</ele><time>2026-08-28T13:22:27Z</time></trkpt><trkpt lat="14.760503" lon="-91.549819"><ele>3434.435</ele><time>2026-08-28T13:22:43Z</time></trkpt><trkpt lat="14.760457" lon="-91.549842"><ele>3434.785</ele><time>2026-08-28T13:22:50Z</time></trkpt><trkpt lat="14.760472" lon="-91.549797"><ele>3435.896</ele><time>2026-08-28T13:22:51Z</time></trkpt><trkpt lat="14.760427" lon="-91.549772"><ele>3437.565</ele><time>2026-08-28T13:23:04Z</time></trkpt><trkpt lat="14.760436" lon="-91.549824"><ele>3438.568</ele><time>2026-08-28T13:23:13Z</time></trkpt><trkpt lat="14.760385" lon="-91.549842"><ele>3440.214</ele><time>2026-08-28T13:23:23Z</time></trkpt><trkpt lat="14.76038" lon="-91.549889"><ele>3442.209</ele><time>2026-08-28T13:23:36Z</time></trkpt><trkpt lat="14.760364" lon="-91.549946"><ele>3443.778</ele><time>2026-08-28T13:24:00Z</time></trkpt><trkpt lat="14.760338" lon="-91.549988"><ele>3445.874</ele><time>2026-08-28T13:24:34Z</time></trkpt><trkpt lat="14.760304" lon="-91.550024"><ele>3448.488</ele><time>2026-08-28T13:24:52Z</time></trkpt><trkpt lat="14.760266" lon="-91.549996"><ele>3451.472</ele><time>2026-08-28T13:25:18Z</time></trkpt><trkpt lat="14.760257" lon="-91.549949"><ele>3454.243</ele><time>2026-08-28T13:25:28Z</time></trkpt><trkpt lat="14.760209" lon="-91.549952"><ele>3456.274</ele><time>2026-08-28T13:25:34Z</time></trkpt><trkpt lat="14.760191" lon="-91.549996"><ele>3457.878</ele><time>2026-08-28T13:25:51Z</time></trkpt><trkpt lat="14.760153" lon="-91.549962"><ele>3459.358</ele><time>2026-08-28T13:26:18Z</time></trkpt><trkpt lat="14.760109" lon="-91.54995"><ele>3461.459</ele><time>2026-08-28T13:26:26Z</time></trkpt><trkpt lat="14.760124" lon="-91.549998"><ele>3464.293</ele><time>2026-08-28T13:26:31Z</time></trkpt><trkpt lat="14.760078" lon="-91.549994"><ele>3466.365</ele><time>2026-08-28T13:27:24Z</time></trkpt><trkpt lat="14.760045" lon="-91.550027"><ele>3467.421</ele><time>2026-08-28T13:27:36Z</time></trkpt><trkpt lat="14.76007" lon="-91.550066"><ele>3470.709</ele><time>2026-08-28T13:27:52Z</time></trkpt><trkpt lat="14.760038" lon="-91.550099"><ele>3474.471</ele><time>2026-08-28T13:29:16Z</time></trkpt><trkpt lat="14.759987" lon="-91.550121"><ele>3476.347</ele><time>2026-08-28T13:31:04Z</time></trkpt><trkpt lat="14.759999" lon="-91.55018"><ele>3477.341</ele><time>2026-08-28T13:31:22Z</time></trkpt><trkpt lat="14.759953" lon="-91.550197"><ele>3479.135</ele><time>2026-08-28T13:31:34Z</time></trkpt><trkpt lat="14.759907" lon="-91.550167"><ele>3482.246</ele><time>2026-08-28T13:32:11Z</time></trkpt><trkpt lat="14.759863" lon="-91.550182"><ele>3484.247</ele><time>2026-08-28T13:32:39Z</time></trkpt><trkpt lat="14.759856" lon="-91.550232"><ele>3486.061</ele><time>2026-08-28T13:33:03Z</time></trkpt><trkpt lat="14.759787" lon="-91.550219"><ele>3488.721</ele><time>2026-08-28T13:33:20Z</time></trkpt><trkpt lat="14.759759" lon="-91.550167"><ele>3494.232</ele><time>2026-08-28T13:33:23Z</time></trkpt><trkpt lat="14.759811" lon="-91.550189"><ele>3496.372</ele><time>2026-08-28T13:33:33Z</time></trkpt><trkpt lat="14.759767" lon="-91.550201"><ele>3496.913</ele><time>2026-08-28T13:33:42Z</time></trkpt><trkpt lat="14.75972" lon="-91.550202"><ele>3497.214</ele><time>2026-08-28T13:34:06Z</time></trkpt><trkpt lat="14.759745" lon="-91.550253"><ele>3497.509</ele><time>2026-08-28T13:34:52Z</time></trkpt><trkpt lat="14.759702" lon="-91.550271"><ele>3498.939</ele><time>2026-08-28T13:35:29Z</time></trkpt><trkpt lat="14.75973" lon="-91.550309"><ele>3500.025</ele><time>2026-08-28T13:35:37Z</time></trkpt><trkpt lat="14.759675" lon="-91.550322"><ele>3502.379</ele><time>2026-08-28T13:35:51Z</time></trkpt><trkpt lat="14.759638" lon="-91.550359"><ele>3505.113</ele><time>2026-08-28T13:35:55Z</time></trkpt><trkpt lat="14.759665" lon="-91.550307"><ele>3506.854</ele><time>2026-08-28T13:36:01Z</time></trkpt><trkpt lat="14.759609" lon="-91.550328"><ele>3508.255</ele><time>2026-08-28T13:36:04Z</time></trkpt><trkpt lat="14.759656" lon="-91.550335"><ele>3509.219</ele><time>2026-08-28T13:36:21Z</time></trkpt><trkpt lat="14.759641" lon="-91.550389"><ele>3509.429</ele><time>2026-08-28T13:36:31Z</time></trkpt><trkpt lat="14.759631" lon="-91.550438"><ele>3510.850</ele><time>2026-08-28T13:36:38Z</time></trkpt><trkpt lat="14.759613" lon="-91.550483"><ele>3512.785</ele><time>2026-08-28T13:37:17Z</time></trkpt><trkpt lat="14.759563" lon="-91.550495"><ele>3513.989</ele><time>2026-08-28T13:37:26Z</time></trkpt><trkpt lat="14.759518" lon="-91.550468"><ele>3515.717</ele><time>2026-08-28T13:37:37Z</time></trkpt><trkpt lat="14.759505" lon="-91.550517"><ele>3517.809</ele><time>2026-08-28T13:37:55Z</time></trkpt><trkpt lat="14.759465" lon="-91.55048"><ele>3519.470</ele><time>2026-08-28T13:38:20Z</time></trkpt><trkpt lat="14.759411" lon="-91.550465"><ele>3521.386</ele><time>2026-08-28T13:38:32Z</time></trkpt><trkpt lat="14.759367" lon="-91.550428"><ele>3523.760</ele><time>2026-08-28T13:39:11Z</time></trkpt><trkpt lat="14.759335" lon="-91.550393"><ele>3525.994</ele><time>2026-08-28T13:39:14Z</time></trkpt><trkpt lat="14.75935" lon="-91.550445"><ele>3529.125</ele><time>2026-08-28T13:39:26Z</time></trkpt><trkpt lat="14.75935" lon="-91.550494"><ele>3531.826</ele><time>2026-08-28T13:39:53Z</time></trkpt><trkpt lat="14.75935" lon="-91.550545"><ele>3532.360</ele><time>2026-08-28T13:40:00Z</time></trkpt><trkpt lat="14.759304" lon="-91.550545"><ele>3534.390</ele><time>2026-08-28T13:40:09Z</time></trkpt><trkpt lat="14.759289" lon="-91.550496"><ele>3536.591</ele><time>2026-08-28T13:40:28Z</time></trkpt><trkpt lat="14.75924" lon="-91.55049"><ele>3537.653</ele><time>2026-08-28T13:40:51Z</time></trkpt><trkpt lat="14.759217" lon="-91.550531"><ele>3539.004</ele><time>2026-08-28T13:41:19Z</time></trkpt><trkpt lat="14.759137" lon="-91.550536"><ele>3543.014</ele><time>2026-08-28T13:41:27Z</time></trkpt><trkpt lat="14.759175" lon="-91.550565"><ele>3545.409</ele><time>2026-08-28T13:43:17Z</time></trkpt><trkpt lat="14.759132" lon="-91.550586"><ele>3546.057</ele><time>2026-08-28T13:43:21Z</time></trkpt><trkpt lat="14.759087" lon="-91.550574"><ele>3549.133</ele><time>2026-08-28T13:43:28Z</time></trkpt><trkpt lat="14.759101" lon="-91.55053"><ele>3552.167</ele><time>2026-08-28T13:43:34Z</time></trkpt><trkpt lat="14.759084" lon="-91.550576"><ele>3553.121</ele><time>2026-08-28T13:43:58Z</time></trkpt><trkpt lat="14.759048" lon="-91.550611"><ele>3553.882</ele><time>2026-08-28T13:44:12Z</time></trkpt><trkpt lat="14.759" lon="-91.550582"><ele>3555.593</ele><time>2026-08-28T13:44:22Z</time></trkpt><trkpt lat="14.759043" lon="-91.550618"><ele>3557.947</ele><time>2026-08-28T13:44:24Z</time></trkpt><trkpt lat="14.759038" lon="-91.550669"><ele>3560.037</ele><time>2026-08-28T13:44:34Z</time></trkpt><trkpt lat="14.759037" lon="-91.550621"><ele>3561.238</ele><time>2026-08-28T13:44:37Z</time></trkpt><trkpt lat="14.759019" lon="-91.550672"><ele>3561.544</ele><time>2026-08-28T13:44:53Z</time></trkpt><trkpt lat="14.758995" lon="-91.550631"><ele>3561.905</ele><time>2026-08-28T13:45:01Z</time></trkpt><trkpt lat="14.758954" lon="-91.550655"><ele>3562.915</ele><time>2026-08-28T13:45:40Z</time></trkpt><trkpt lat="14.758903" lon="-91.550652"><ele>3564.009</ele><time>2026-08-28T13:45:43Z</time></trkpt><trkpt lat="14.758863" lon="-91.550628"><ele>3566.626</ele><time>2026-08-28T13:47:48Z</time></trkpt><trkpt lat="14.758911" lon="-91.550628"><ele>3569.142</ele><time>2026-08-28T13:48:05Z</time></trkpt><trkpt lat="14.758864" lon="-91.55062"><ele>3569.556</ele><time>2026-08-28T13:52:37Z</time></trkpt><trkpt lat="14.758898" lon="-91.550654"><ele>3570.030</ele><time>2026-08-28T13:53:23Z</time></trkpt><trkpt lat="14.758925" lon="-91.550695"><ele>3570.471</ele><time>2026-08-28T13:53:39Z</time></trkpt><trkpt lat="14.758962" lon="-91.550727"><ele>3570.672</ele><time>2026-08-28T13:53:45Z</time></trkpt><trkpt lat="14.758926" lon="-91.550786"><ele>3571.146</ele><time>2026-08-28T13:54:01Z</time></trkpt><trkpt lat="14.758875" lon="-91.550772"><ele>3572.026</ele><time>2026-08-28T13:54:11Z</time></trkpt><trkpt lat="14.758831" lon="-91.550802"><ele>3574.017</ele><time>2026-08-28T13:54:45Z</time></trkpt><trkpt lat="14.758851" lon="-91.550755"><ele>3576.028</ele><time>2026-08-28T13:54:58Z</time></trkpt><trkpt lat="14.758815" lon="-91.550783"><ele>3578.989</ele><time>2026-08-28T13:55:18Z</time></trkpt><trkpt lat="14.758754" lon="-91.550784"><ele>3581.517</ele><time>2026-08-28T13:55:29Z</time></trkpt><trkpt lat="14.758783" lon="-91.550821"><ele>3581.909</ele><time>2026-08-28T13:55:51Z</time></trkpt><trkpt lat="14.758737" lon="-91.550841"><ele>3583.134</ele><time>2026-08-28T13:56:08Z</time></trkpt><trkpt lat="14.75869" lon="-91.550843"><ele>3584.780</ele><time>2026-08-28T13:56:27Z</time></trkpt><trkpt lat="14.758673" lon="-91.550795"><ele>3586.524</ele><time>2026-08-28T13:56:37Z</time></trkpt><trkpt lat="14.758673" lon="-91.550842"><ele>3589.588</ele><time>2026-08-28T13:56:42Z</time></trkpt><trkpt lat="14.758714" lon="-91.550877"><ele>3591.419</ele><time>2026-08-28T13:57:01Z</time></trkpt><trkpt lat="14.758661" lon="-91.550887"><ele>3591.790</ele><time>2026-08-28T13:57:09Z</time></trkpt><trkpt lat="14.758619" lon="-91.550864"><ele>3593.224</ele><time>2026-08-28T13:57:32Z</time></trkpt><trkpt lat="14.75862" lon="-91.55091"><ele>3595.074</ele><time>2026-08-28T13:57:53Z</time></trkpt><trkpt lat="14.75857" lon="-91.550918"><ele>3597.035</ele><time>2026-08-28T13:58:03Z</time></trkpt><trkpt lat="14.758526" lon="-91.550895"><ele>3599.671</ele><time>2026-08-28T13:58:15Z</time></trkpt><trkpt lat="14.758464" lon="-91.550936"><ele>3601.141</ele><time>2026-08-28T13:58:20Z</time></trkpt><trkpt lat="14.758418" lon="-91.550936"><ele>3602.815</ele><time>2026-08-28T13:58:53Z</time></trkpt><trkpt lat="14.75849" lon="-91.550909"><ele>3603.909</ele><time>2026-08-28T14:00:45Z</time></trkpt><trkpt lat="14.758444" lon="-91.550892"><ele>3605.629</ele><time>2026-08-28T14:02:00Z</time></trkpt><trkpt lat="14.758491" lon="-91.550921"><ele>3605.615</ele><time>2026-08-28T14:02:14Z</time></trkpt><trkpt lat="14.758536" lon="-91.550886"><ele>3605.649</ele><time>2026-08-28T14:07:50Z</time></trkpt><trkpt lat="14.758492" lon="-91.550903"><ele>3605.473</ele><time>2026-08-28T14:10:38Z</time></trkpt><trkpt lat="14.758467" lon="-91.550942"><ele>3605.634</ele><time>2026-08-28T14:12:18Z</time></trkpt><trkpt lat="14.758419" lon="-91.550913"><ele>3605.665</ele><time>2026-08-28T14:12:22Z</time></trkpt><trkpt lat="14.75837" lon="-91.55092"><ele>3606.319</ele><time>2026-08-28T14:12:36Z</time></trkpt><trkpt lat="14.758326" lon="-91.550906"><ele>3607.539</ele><time>2026-08-28T14:12:51Z</time></trkpt><trkpt lat="14.758278" lon="-91.550921"><ele>3608.790</ele><time>2026-08-28T14:12:56Z</time></trkpt><trkpt lat="14.758317" lon="-91.550946"><ele>3610.493</ele><time>2026-08-28T14:13:15Z</time></trkpt><trkpt lat="14.758269" lon="-91.55094"><ele>3611.665</ele><time>2026-08-28T14:13:25Z</time></trkpt><trkpt lat="14.758223" lon="-91.550936"><ele>3612.921</ele><time>2026-08-28T14:13:35Z</time></trkpt><trkpt lat="14.758271" lon="-91.55094"><ele>3614.009</ele><time>2026-08-28T14:13:49Z</time></trkpt><trkpt lat="14.758273" lon="-91.550992"><ele>3615.051</ele><time>2026-08-28T14:13:56Z</time></trkpt><trkpt lat="14.758241" lon="-91.550959"><ele>3616.577</ele><time>2026-08-28T14:14:48Z</time></trkpt><trkpt lat="14.758282" lon="-91.550985"><ele>3617.781</ele><time>2026-08-28T14:14:49Z</time></trkpt><trkpt lat="14.758236" lon="-91.550957"><ele>3618.815</ele><time>2026-08-28T14:14:56Z</time></trkpt><trkpt lat="14.758233" lon="-91.550894"><ele>3619.626</ele><time>2026-08-28T14:15:24Z</time></trkpt><trkpt lat="14.758219" lon="-91.550941"><ele>3619.997</ele><time>2026-08-28T14:15:48Z</time></trkpt><trkpt lat="14.758242" lon="-91.550982"><ele>3620.481</ele><time>2026-08-28T14:16:14Z</time></trkpt><trkpt lat="14.758234" lon="-91.551031"><ele>3620.911</ele><time>2026-08-28T14:16:25Z</time></trkpt><trkpt lat="14.758201" lon="-91.551063"><ele>3622.312</ele><time>2026-08-28T14:16:31Z</time></trkpt><trkpt lat="14.758154" lon="-91.551076"><ele>3624.428</ele><time>2026-08-28T14:16:42Z</time></trkpt><trkpt lat="14.758089" lon="-91.551085"><ele>3626.189</ele><time>2026-08-28T14:17:11Z</time></trkpt><trkpt lat="14.758117" lon="-91.551124"><ele>3627.617</ele><time>2026-08-28T14:17:36Z</time></trkpt><trkpt lat="14.758063" lon="-91.551152"><ele>3631.109</ele><time>2026-08-28T14:17:48Z</time></trkpt><trkpt lat="14.75811" lon="-91.55115"><ele>3635.074</ele><time>2026-08-28T14:18:05Z</time></trkpt><trkpt lat="14.758077" lon="-91.551203"><ele>3638.270</ele><time>2026-08-28T14:18:20Z</time></trkpt><trkpt lat="14.758106" lon="-91.551163"><ele>3638.844</ele><time>2026-08-28T14:18:23Z</time></trkpt><trkpt lat="14.758037" lon="-91.551176"><ele>3642.048</ele><time>2026-08-28T14:18:24Z</time></trkpt><trkpt lat="14.757981" lon="-91.551157"><ele>3642.219</ele><time>2026-08-28T14:18:53Z</time></trkpt><trkpt lat="14.75803" lon="-91.551141"><ele>3642.350</ele><time>2026-08-28T14:19:02Z</time></trkpt><trkpt lat="14.757988" lon="-91.551159"><ele>3646.994</ele><time>2026-08-28T14:19:58Z</time></trkpt><trkpt lat="14.757998" lon="-91.551208"><ele>3647.184</ele><time>2026-08-28T14:20:27Z</time></trkpt><trkpt lat="14.757988" lon="-91.551255"><ele>3647.215</ele><time>2026-08-28T14:20:38Z</time></trkpt><trkpt lat="14.758027" lon="-91.551289"><ele>3648.169</ele><time>2026-08-28T14:20:55Z</time></trkpt><trkpt lat="14.758052" lon="-91.551329"><ele>3649.904</ele><time>2026-08-28T14:21:04Z</time></trkpt><trkpt lat="14.758005" lon="-91.551362"><ele>3652.124</ele><time>2026-08-28T14:21:18Z</time></trkpt><trkpt lat="14.757958" lon="-91.551386"><ele>3654.109</ele><time>2026-08-28T14:21:36Z</time></trkpt><trkpt lat="14.757912" lon="-91.551371"><ele>3656.258</ele><time>2026-08-28T14:21:44Z</time></trkpt><trkpt lat="14.757914" lon="-91.551422"><ele>3658.774</ele><time>2026-08-28T14:22:40Z</time></trkpt><trkpt lat="14.757868" lon="-91.55144"><ele>3660.688</ele><time>2026-08-28T14:22:52Z</time></trkpt><trkpt lat="14.75787" lon="-91.551491"><ele>3663.562</ele><time>2026-08-28T14:24:21Z</time></trkpt><trkpt lat="14.757876" lon="-91.551538"><ele>3667.153</ele><time>2026-08-28T14:24:33Z</time></trkpt><trkpt lat="14.757831" lon="-91.551545"><ele>3670.174</ele><time>2026-08-28T14:24:48Z</time></trkpt><trkpt lat="14.757785" lon="-91.551561"><ele>3672.878</ele><time>2026-08-28T14:26:07Z</time></trkpt><trkpt lat="14.757806" lon="-91.551603"><ele>3675.998</ele><time>2026-08-28T14:26:15Z</time></trkpt><trkpt lat="14.757758" lon="-91.551607"><ele>3678.179</ele><time>2026-08-28T14:26:24Z</time></trkpt><trkpt lat="14.757713" lon="-91.551605"><ele>3679.313</ele><time>2026-08-28T14:26:34Z</time></trkpt><trkpt lat="14.757681" lon="-91.551567"><ele>3680.943</ele><time>2026-08-28T14:26:42Z</time></trkpt><trkpt lat="14.757687" lon="-91.551613"><ele>3682.407</ele><time>2026-08-28T14:27:03Z</time></trkpt><trkpt lat="14.75764" lon="-91.551602"><ele>3683.509</ele><time>2026-08-28T14:27:39Z</time></trkpt><trkpt lat="14.757591" lon="-91.55157"><ele>3685.383</ele><time>2026-08-28T14:27:47Z</time></trkpt><trkpt lat="14.757567" lon="-91.55153"><ele>3687.079</ele><time>2026-08-28T14:28:02Z</time></trkpt><trkpt lat="14.757526" lon="-91.551496"><ele>3687.963</ele><time>2026-08-28T14:28:14Z</time></trkpt><trkpt lat="14.757481" lon="-91.551475"><ele>3690.237</ele><time>2026-08-28T14:28:24Z</time></trkpt><trkpt lat="14.757484" lon="-91.551524"><ele>3692.838</ele><time>2026-08-28T14:28:46Z</time></trkpt><trkpt lat="14.75744" lon="-91.551543"><ele>3694.539</ele><time>2026-08-28T14:28:52Z</time></trkpt><trkpt lat="14.757424" lon="-91.551587"><ele>3696.053</ele><time>2026-08-28T14:29:08Z</time></trkpt><trkpt lat="14.757402" lon="-91.551633"><ele>3697.263</ele><time>2026-08-28T14:29:13Z</time></trkpt><trkpt lat="14.757358" lon="-91.551622"><ele>3698.654</ele><time>2026-08-28T14:29:20Z</time></trkpt><trkpt lat="14.757318" lon="-91.551599"><ele>3699.763</ele><time>2026-08-28T14:29:27Z</time></trkpt><trkpt lat="14.757276" lon="-91.551575"><ele>3699.744</ele><time>2026-08-28T14:29:39Z</time></trkpt><trkpt lat="14.757223" lon="-91.551576"><ele>3699.818</ele><time>2026-08-28T14:29:45Z</time></trkpt><trkpt lat="14.757176" lon="-91.551606"><ele>3700.109</ele><time>2026-08-28T14:29:50Z</time></trkpt><trkpt lat="14.757131" lon="-91.551632"><ele>3700.518</ele><time>2026-08-28T14:29:56Z</time></trkpt><trkpt lat="14.757086" lon="-91.551658"><ele>3700.884</ele><time>2026-08-28T14:30:01Z</time></trkpt><trkpt lat="14.757066" lon="-91.551705"><ele>3700.978</ele><time>2026-08-28T14:30:06Z</time></trkpt><trkpt lat="14.757032" lon="-91.551747"><ele>3700.932</ele><time>2026-08-28T14:30:13Z</time></trkpt><trkpt lat="14.756988" lon="-91.551759"><ele>3700.983</ele><time>2026-08-28T14:30:21Z</time></trkpt><trkpt lat="14.75694" lon="-91.551768"><ele>3700.964</ele><time>2026-08-28T14:30:37Z</time></trkpt><trkpt lat="14.756898" lon="-91.551741"><ele>3699.868</ele><time>2026-08-28T14:30:46Z</time></trkpt><trkpt lat="14.756859" lon="-91.551783"><ele>3697.398</ele><time>2026-08-28T14:30:53Z</time></trkpt><trkpt lat="14.756822" lon="-91.55181"><ele>3694.549</ele><time>2026-08-28T14:30:57Z</time></trkpt><trkpt lat="14.756766" lon="-91.5518"><ele>3692.244</ele><time>2026-08-28T14:31:02Z</time></trkpt><trkpt lat="14.756715" lon="-91.551807"><ele>3691.005</ele><time>2026-08-28T14:31:07Z</time></trkpt><trkpt lat="14.756665" lon="-91.551812"><ele>3690.515</ele><time>2026-08-28T14:31:12Z</time></trkpt><trkpt lat="14.756621" lon="-91.551795"><ele>3689.809</ele><time>2026-08-28T14:31:18Z</time></trkpt><trkpt lat="14.756582" lon="-91.55183"><ele>3689.866</ele><time>2026-08-28T14:31:26Z</time></trkpt><trkpt lat="14.756569" lon="-91.551877"><ele>3689.832</ele><time>2026-08-28T14:31:31Z</time></trkpt><trkpt lat="14.756539" lon="-91.551918"><ele>3689.436</ele><time>2026-08-28T14:31:57Z</time></trkpt><trkpt lat="14.756495" lon="-91.551895"><ele>3689.430</ele><time>2026-08-28T14:32:25Z</time></trkpt><trkpt lat="14.75645" lon="-91.551903"><ele>3689.121</ele><time>2026-08-28T14:32:32Z</time></trkpt><trkpt lat="14.756403" lon="-91.551903"><ele>3688.412</ele><time>2026-08-28T14:32:38Z</time></trkpt><trkpt lat="14.756357" lon="-91.551894"><ele>3687.776</ele><time>2026-08-28T14:32:44Z</time></trkpt><trkpt lat="14.756308" lon="-91.551888"><ele>3686.526</ele><time>2026-08-28T14:32:52Z</time></trkpt><trkpt lat="14.756259" lon="-91.551903"><ele>3685.067</ele><time>2026-08-28T14:32:59Z</time></trkpt><trkpt lat="14.756288" lon="-91.551944"><ele>3683.696</ele><time>2026-08-28T14:33:17Z</time></trkpt><trkpt lat="14.756246" lon="-91.551964"><ele>3682.531</ele><time>2026-08-28T14:33:22Z</time></trkpt><trkpt lat="14.756237" lon="-91.551918"><ele>3680.924</ele><time>2026-08-28T14:35:09Z</time></trkpt><trkpt lat="14.756202" lon="-91.551884"><ele>3679.709</ele><time>2026-08-28T14:35:15Z</time></trkpt><trkpt lat="14.756192" lon="-91.551836"><ele>3679.721</ele><time>2026-08-28T14:35:33Z</time></trkpt><trkpt lat="14.756197" lon="-91.551789"><ele>3679.797</ele><time>2026-08-28T14:35:42Z</time></trkpt><trkpt lat="14.75618" lon="-91.551833"><ele>3679.841</ele><time>2026-08-28T14:37:49Z</time></trkpt><trkpt lat="14.756219" lon="-91.551791"><ele>3680.735</ele><time>2026-08-28T14:38:08Z</time></trkpt><trkpt lat="14.756269" lon="-91.551802"><ele>3681.676</ele><time>2026-08-28T14:38:17Z</time></trkpt><trkpt lat="14.756315" lon="-91.551791"><ele>3682.127</ele><time>2026-08-28T14:38:24Z</time></trkpt><trkpt lat="14.756363" lon="-91.551794"><ele>3683.681</ele><time>2026-08-28T14:38:31Z</time></trkpt><trkpt lat="14.756412" lon="-91.551791"><ele>3685.111</ele><time>2026-08-28T14:38:39Z</time></trkpt><trkpt lat="14.756464" lon="-91.551795"><ele>3685.782</ele><time>2026-08-28T14:38:48Z</time></trkpt><trkpt lat="14.7565" lon="-91.551824"><ele>3686.611</ele><time>2026-08-28T14:38:56Z</time></trkpt><trkpt lat="14.756545" lon="-91.55184"><ele>3687.521</ele><time>2026-08-28T14:39:02Z</time></trkpt><trkpt lat="14.756587" lon="-91.551875"><ele>3688.703</ele><time>2026-08-28T14:39:10Z</time></trkpt><trkpt lat="14.756633" lon="-91.55185"><ele>3689.909</ele><time>2026-08-28T14:39:40Z</time></trkpt><trkpt lat="14.756682" lon="-91.551829"><ele>3690.443</ele><time>2026-08-28T14:39:48Z</time></trkpt><trkpt lat="14.756727" lon="-91.55182"><ele>3690.499</ele><time>2026-08-28T14:39:53Z</time></trkpt><trkpt lat="14.756773" lon="-91.551797"><ele>3690.633</ele><time>2026-08-28T14:39:58Z</time></trkpt><trkpt lat="14.75682" lon="-91.551794"><ele>3691.287</ele><time>2026-08-28T14:40:05Z</time></trkpt><trkpt lat="14.756863" lon="-91.551777"><ele>3692.068</ele><time>2026-08-28T14:40:11Z</time></trkpt><trkpt lat="14.756913" lon="-91.551757"><ele>3693.029</ele><time>2026-08-28T14:40:20Z</time></trkpt><trkpt lat="14.75696" lon="-91.551767"><ele>3693.763</ele><time>2026-08-28T14:40:34Z</time></trkpt><trkpt lat="14.756985" lon="-91.551722"><ele>3694.093</ele><time>2026-08-28T14:40:48Z</time></trkpt><trkpt lat="14.757019" lon="-91.551687"><ele>3695.284</ele><time>2026-08-28T14:41:02Z</time></trkpt><trkpt lat="14.757065" lon="-91.551688"><ele>3697.321</ele><time>2026-08-28T14:41:10Z</time></trkpt><trkpt lat="14.757116" lon="-91.551693"><ele>3699.941</ele><time>2026-08-28T14:41:17Z</time></trkpt><trkpt lat="14.757145" lon="-91.551653"><ele>3702.205</ele><time>2026-08-28T14:41:24Z</time></trkpt><trkpt lat="14.757179" lon="-91.551614"><ele>3703.109</ele><time>2026-08-28T14:41:32Z</time></trkpt><trkpt lat="14.757222" lon="-91.551589"><ele>3703.194</ele><time>2026-08-28T14:41:37Z</time></trkpt><trkpt lat="14.757269" lon="-91.551563"><ele>3703.130</ele><time>2026-08-28T14:41:44Z</time></trkpt><trkpt lat="14.757305" lon="-91.551531"><ele>3703.154</ele><time>2026-08-28T14:41:49Z</time></trkpt><trkpt lat="14.757336" lon="-91.551493"><ele>3702.998</ele><time>2026-08-28T14:41:55Z</time></trkpt><trkpt lat="14.757384" lon="-91.55151"><ele>3702.999</ele><time>2026-08-28T14:42:05Z</time></trkpt><trkpt lat="14.757406" lon="-91.551552"><ele>3703.060</ele><time>2026-08-28T14:42:56Z</time></trkpt></trkseg></trk></gpx>