{"type":"Feature","properties":{"name":"Ruta de ascenso al Volcán Santa María","direction":"ascent"},"geometry":{"type":"LineString","coordinates":[[-91.553217,14.773321,2797.351],[-91.553239,14.773364,2794.301],[-91.553211,14.77331,2791.311],[-91.55318,14.773265,2791.409],[-91.553134,14.773254,2791.557],[-91.55309,14.773283,2791.823],[-91.553036,14.773283,2791.827],[-91.552987,14.773282,2792.331],[-91.55294,14.773272,2792.892],[-91.552888,14.773259,2793.333],[-91.55284,14.77328,2794.037],[-91.552787,14.773286,2794.697],[-91.552741,14.773275,2795.058],[-91.55269,14.773261,2795.667],[-91.552631,14.77328,2796.581],[-91.552619,14.77322,2798.019],[-91.552573,14.773207,2798.709],[-91.552552,14.773159,2800.088],[-91.552509,14.773139,2800.654],[-91.552462,14.77312,2801.598],[-91.552419,14.773095,2802.142],[-91.552378,14.77307,2802.883],[-91.552333,14.773052,2803.864],[-91.552286,14.773103,2804.728],[-91.552248,14.773132,2805.218],[-91.552198,14.773124,2806.399],[-91.552146,14.773119,2808.464],[-91.552136,14.773071,2810.006],[-91.55209,14.773084,2811.016],[-91.552045,14.773064,2812.309],[-91.552003,14.77304,2813.248],[-91.551949,14.773042,2814.394],[-91.551896,14.773007,2815.888],[-91.551861,14.772971,2816.622],[-91.551864,14.772909,2818.913],[-91.551783,14.7729,2819.474],[-91.551733,14.772924,2820.688],[-91.551631,14.772935,2822.718],[-91.551585,14.772903,2824.479],[-91.551531,14.77291,2825.043],[-91.551593,14.772901,2825.464],[-91.551538,14.77291,2825.81],[-91.55146,14.772893,2826.109],[-91.551461,14.772847,2826.866],[-91.551411,14.772831,2828.042],[-91.551356,14.772813,2828.716],[-91.551423,14.772827,2829.53],[-91.551365,14.772858,2829.761],[-91.551319,14.772835,2830.332],[-91.551282,14.772798,2831.126],[-91.551235,14.772809,2831.516],[-91.551209,14.772768,2832.277],[-91.55115,14.772751,2833.477],[-91.551214,14.772756,2834.161],[-91.551135,14.772767,2834.427],[-91.551089,14.772777,2834.709],[-91.55104,14.772802,2835.079],[-91.55097,14.772745,2835.755],[-91.550921,14.772747,2836.059],[-91.5509,14.772703,2836.423],[-91.550837,14.772671,2837.294],[-91.55079,14.77265,2837.625],[-91.550756,14.772589,2838.059],[-91.550716,14.772625,2838.599],[-91.550685,14.77259,2838.87],[-91.550641,14.772566,2839.061],[-91.550578,14.772601,2839.621],[-91.550538,14.772566,2839.813],[-91.55051,14.77252,2840.409],[-91.550463,14.772554,2841.078],[-91.550502,14.772482,2841.674],[-91.550457,14.772515,2841.768],[-91.550414,14.772495,2841.732],[-91.550352,14.772475,2842.023],[-91.55028,14.772487,2842.524],[-91.550301,14.772534,2842.988],[-91.55028,14.772479,2843.648],[-91.550248,14.772419,2844.719],[-91.550217,14.772458,2844.997],[-91.55017,14.772462,2846.423],[-91.550116,14.772459,2847.225],[-91.550068,14.772458,2847.309],[-91.550026,14.772435,2847.631],[-91.54997,14.772433,2848.087],[-91.54992,14.772444,2848.591],[-91.549858,14.772334,2849.685],[-91.549901,14.772369,2851.446],[-91.549917,14.772305,2852.797],[-91.549959,14.772273,2853.011],[-91.549972,14.772223,2853.141],[-91.549923,14.772193,2855.322],[-91.549957,14.772151,2855.425],[-91.549907,14.772149,2855.526],[-91.549843,14.772126,2855.708],[-91.549854,14.772206,2856.109],[-91.549872,14.772162,2856.914],[-91.549828,14.772194,2857.46],[-91.549783,14.772234,2858.024],[-91.549694,14.772276,2858.578],[-91.549727,14.772214,2859.319],[-91.54968,14.772207,2860.27],[-91.549674,14.772256,2860.544],[-91.549684,14.772203,2861.094],[-91.549696,14.772141,2862.365],[-91.549745,14.772112,2862.833],[-91.549712,14.772173,2864.223],[-91.549665,14.77218,2864.715],[-91.549636,14.772142,2865.109],[-91.549589,14.772125,2865.495],[-91.549634,14.772086,2866.031],[-91.549617,14.772043,2866.915],[-91.549569,14.772049,2867.729],[-91.54951,14.772034,2868.28],[-91.549535,14.771995,2868.831],[-91.5495,14.771963,2869.725],[-91.549518,14.771912,2871.065],[-91.54947,14.771919,2871.986],[-91.549472,14.77185,2872.318],[-91.549416,14.771845,2873.298],[-91.549364,14.771819,2874.517],[-91.549506,14.771835,2877.009],[-91.549364,14.771773,2879.573],[-91.549382,14.771834,2879.859],[-91.549325,14.771826,2880.283],[-91.549282,14.771804,2880.837],[-91.549243,14.771768,2881.058],[-91.549479,14.771551,2882.269],[-91.549391,14.771654,2882.323],[-91.549424,14.771786,2882.473],[-91.549377,14.771757,2883.364],[-91.549331,14.771749,2883.413],[-91.549292,14.771722,2884.043],[-91.549239,14.771722,2884.507],[-91.549187,14.771703,2884.609],[-91.54915,14.771665,2884.983],[-91.549299,14.771735,2885.679],[-91.54925,14.771709,2885.813],[-91.549307,14.771702,2886.277],[-91.549334,14.771657,2886.928],[-91.549269,14.771647,2887.219],[-91.549219,14.771629,2888.013],[-91.549177,14.771599,2888.023],[-91.549127,14.771607,2888.194],[-91.549179,14.771564,2888.422],[-91.549152,14.771526,2888.862],[-91.549125,14.771469,2890.008],[-91.549194,14.771456,2890.009],[-91.549094,14.771433,2890.594],[-91.549158,14.771417,2891.33],[-91.549198,14.771382,2892.164],[-91.549146,14.771424,2892.378],[-91.549107,14.771296,2892.889],[-91.549161,14.771311,2893.27],[-91.549169,14.771368,2893.314],[-91.549215,14.771315,2893.334],[-91.549206,14.771253,2893.375],[-91.549162,14.771237,2893.432],[-91.54912,14.771258,2893.692],[-91.549089,14.771223,2893.811],[-91.549057,14.771178,2894.509],[-91.549057,14.771125,2895.445],[-91.549031,14.771165,2896.081],[-91.549007,14.771106,2896.755],[-91.548928,14.771156,2898.069],[-91.548916,14.771095,2899.21],[-91.548839,14.77113,2900.381],[-91.548876,14.771171,2901.185],[-91.548827,14.771154,2901.365],[-91.548875,14.771163,2902.136],[-91.548845,14.771125,2904.071],[-91.548797,14.771128,2904.541],[-91.548757,14.771152,2905.015],[-91.548805,14.771146,2905.409],[-91.548788,14.771085,2906.669],[-91.548746,14.771047,2907.635],[-91.548692,14.771036,2907.959],[-91.548644,14.771018,2908.353],[-91.548613,14.770983,2909.244],[-91.54856,14.770994,2910.035],[-91.548543,14.771039,2911.189],[-91.548521,14.771082,2912.049],[-91.548477,14.771098,2912.49],[-91.54843,14.771087,2913.192],[-91.548403,14.771047,2914.273],[-91.548351,14.771031,2915.42],[-91.548323,14.770932,2917.709],[-91.54831,14.770987,2918.791],[-91.548309,14.770939,2919.347],[-91.548278,14.770977,2920.121],[-91.548255,14.770907,2920.735],[-91.548206,14.770882,2920.966],[-91.548207,14.770831,2922.097],[-91.548169,14.770785,2923.911],[-91.548137,14.77075,2924.881],[-91.548084,14.770733,2925.462],[-91.54803,14.77074,2926.662],[-91.548007,14.7707,2927.783],[-91.547981,14.770658,2928.511],[-91.547935,14.77064,2929.509],[-91.547897,14.770682,2930.848],[-91.547838,14.770648,2931.614],[-91.547832,14.770599,2932.328],[-91.547775,14.770603,2933.922],[-91.54779,14.770653,2936.263],[-91.547759,14.770591,2936.264],[-91.547777,14.77064,2936.278],[-91.547795,14.770581,2936.238],[-91.54784,14.770609,2936.229],[-91.547895,14.770598,2936.231],[-91.547927,14.770564,2936.261],[-91.54792,14.770514,2936.407],[-91.547903,14.770467,2936.809],[-91.547906,14.770406,2937.255],[-91.547897,14.770353,2937.671],[-91.547881,14.77031,2938.235],[-91.547868,14.770267,2938.829],[-91.547855,14.77022,2939.37],[-91.547853,14.770171,2940.031],[-91.547845,14.770124,2941.035],[-91.54785,14.770075,2942.125],[-91.547853,14.770024,2943.186],[-91.547872,14.769979,2944.228],[-91.547893,14.769937,2945.489],[-91.54792,14.769898,2946.517],[-91.54794,14.769852,2947.209],[-91.547975,14.769804,2947.994],[-91.547998,14.769763,2948.65],[-91.548005,14.769714,2949.364],[-91.548004,14.769668,2950.048],[-91.548048,14.769635,2950.519],[-91.548066,14.769589,2951.49],[-91.548088,14.769549,2952.414],[-91.548093,14.769499,2953.694],[-91.548096,14.769452,2954.895],[-91.548107,14.769402,2955.789],[-91.548088,14.769355,2956.606],[-91.548041,14.769328,2957.526],[-91.547994,14.769307,2958.209],[-91.547934,14.769302,2959.23],[-91.547911,14.769257,2960.526],[-91.547913,14.769207,2961.44],[-91.54791,14.769152,2962.094],[-91.547921,14.769101,2962.775],[-91.547909,14.769044,2964.056],[-91.54792,14.768994,2965.53],[-91.547935,14.768949,2966.56],[-91.547914,14.768904,2967.581],[-91.547904,14.76885,2968.745],[-91.547918,14.768804,2969.647],[-91.547941,14.768762,2970.411],[-91.547989,14.768748,2971.209],[-91.548017,14.768705,2972.516],[-91.548045,14.768665,2973.832],[-91.548047,14.768619,2974.876],[-91.548021,14.76858,2976.02],[-91.548035,14.768529,2977.171],[-91.548058,14.76848,2977.692],[-91.548032,14.768436,2978.726],[-91.548014,14.768392,2980.056],[-91.548021,14.768342,2981.487],[-91.548033,14.768297,2983.146],[-91.548053,14.768255,2984.288],[-91.548067,14.76821,2985.016],[-91.548081,14.768152,2986.709],[-91.548083,14.768104,2988.936],[-91.54812,14.768075,2990.792],[-91.548103,14.768026,2992.236],[-91.548085,14.767983,2993.77],[-91.548088,14.76793,2995.531],[-91.548083,14.767876,2996.692],[-91.5481,14.767825,2998.136],[-91.548139,14.767793,3000.146],[-91.548187,14.767793,3001.477],[-91.548208,14.767748,3002.762],[-91.548205,14.767697,3003.783],[-91.548243,14.767659,3004.111],[-91.548289,14.767654,3004.609],[-91.548364,14.767609,3007.338],[-91.54833,14.767574,3009.514],[-91.54838,14.767552,3010.178],[-91.548409,14.767506,3011.442],[-91.548386,14.767466,3013.833],[-91.548424,14.767435,3014.964],[-91.548393,14.767383,3016.858],[-91.548386,14.767336,3018.988],[-91.548425,14.767364,3021.199],[-91.548476,14.767343,3022.779],[-91.548516,14.767316,3023.705],[-91.548446,14.767287,3024.725],[-91.548452,14.767221,3026.509],[-91.548519,14.767222,3027.089],[-91.54848,14.767193,3028.725],[-91.548488,14.767142,3029.439],[-91.548415,14.767143,3031.113],[-91.548445,14.767105,3032.084],[-91.548411,14.767066,3032.555],[-91.548362,14.767029,3033.629],[-91.548393,14.766968,3035.199],[-91.548441,14.766977,3035.38],[-91.548487,14.766987,3038.534],[-91.548536,14.766998,3039.455],[-91.548586,14.766972,3039.71],[-91.548633,14.766968,3040.709],[-91.548672,14.766994,3042.555],[-91.548729,14.767001,3043.941],[-91.548776,14.766999,3044.755],[-91.548824,14.76699,3045.539],[-91.548857,14.766958,3046.05],[-91.548871,14.766899,3047.091],[-91.548838,14.766859,3048.815],[-91.548886,14.766866,3050.295],[-91.548911,14.766905,3051.246],[-91.548962,14.766896,3052.766],[-91.549009,14.766868,3054.029],[-91.54902,14.766823,3054.921],[-91.548992,14.766765,3056.009],[-91.548951,14.766733,3057.468],[-91.548976,14.76669,3058.554],[-91.548933,14.766669,3058.958],[-91.548909,14.766622,3059.152],[-91.548924,14.766665,3059.333],[-91.548932,14.766601,3060.014],[-91.548988,14.766595,3060.868],[-91.549026,14.766545,3062.638],[-91.548958,14.76661,3065.099],[-91.548989,14.766572,3065.664],[-91.549003,14.766518,3065.806],[-91.548981,14.766469,3066.616],[-91.548974,14.766421,3067.709],[-91.548935,14.766458,3068.558],[-91.548972,14.766421,3069.564],[-91.549022,14.766433,3070.178],[-91.549043,14.766474,3070.672],[-91.54909,14.766466,3071.163],[-91.549137,14.766452,3072.314],[-91.549151,14.766394,3073.958],[-91.5491,14.766401,3074.828],[-91.549084,14.766356,3075.099],[-91.549114,14.766313,3075.222],[-91.549145,14.766276,3075.462],[-91.549145,14.766224,3076.708],[-91.549148,14.766174,3079.609],[-91.549095,14.766191,3081.694],[-91.54913,14.766149,3083.15],[-91.54915,14.766104,3084.754],[-91.549199,14.766099,3085.638],[-91.549246,14.766117,3087.199],[-91.549282,14.766082,3089.09],[-91.549304,14.766041,3090.214],[-91.54932,14.766087,3092.594],[-91.549268,14.766067,3095.395],[-91.549321,14.766044,3096.344],[-91.549258,14.766017,3096.605],[-91.549282,14.765976,3096.815],[-91.549307,14.766019,3098.709],[-91.549298,14.765944,3099.656],[-91.549234,14.766017,3099.732],[-91.54923,14.765969,3099.986],[-91.54927,14.765944,3100.08],[-91.549295,14.7659,3100.491],[-91.549339,14.765921,3101.032],[-91.54939,14.765892,3101.776],[-91.549432,14.765851,3103.886],[-91.549474,14.765826,3106.087],[-91.549518,14.765809,3108.279],[-91.549567,14.765808,3111.005],[-91.549585,14.765752,3113.025],[-91.549538,14.765741,3113.909],[-91.54958,14.765711,3115.089],[-91.549631,14.765719,3116.975],[-91.549663,14.765675,3119.729],[-91.549713,14.765694,3121.733],[-91.549708,14.765626,3123.584],[-91.549649,14.765609,3124.595],[-91.549663,14.765555,3126.389],[-91.549678,14.765611,3127.699],[-91.549679,14.765564,3128.62],[-91.549633,14.765576,3128.852],[-91.549682,14.765576,3129.253],[-91.549673,14.765662,3129.408],[-91.54966,14.765612,3129.409],[-91.549707,14.765598,3129.477],[-91.549702,14.765542,3129.463],[-91.549706,14.765639,3129.767],[-91.549695,14.76559,3129.831],[-91.549648,14.765604,3129.822],[-91.54969,14.765632,3129.883],[-91.549678,14.765569,3129.777],[-91.549631,14.765567,3129.717],[-91.549584,14.765554,3129.788],[-91.549572,14.765506,3129.799],[-91.549534,14.765456,3130.307],[-91.549494,14.765421,3131.727],[-91.549537,14.765391,3133.209],[-91.549583,14.765377,3134.911],[-91.549632,14.765349,3136.167],[-91.549708,14.765324,3139.641],[-91.549748,14.765293,3140.785],[-91.5498,14.765292,3142.416],[-91.549867,14.765285,3147.617],[-91.549911,14.76526,3149.021],[-91.54997,14.765261,3150.241],[-91.549962,14.765211,3152.742],[-91.550011,14.765188,3153.388],[-91.550062,14.765168,3154.124],[-91.550108,14.765193,3155.726],[-91.550165,14.765168,3158.009],[-91.550138,14.765128,3159.57],[-91.550134,14.765078,3160.496],[-91.550184,14.765036,3162.71],[-91.550201,14.765086,3163.614],[-91.550247,14.765083,3164.455],[-91.55022,14.765015,3167.676],[-91.550188,14.764975,3169.41],[-91.550236,14.76498,3169.86],[-91.550274,14.764953,3170.561],[-91.550296,14.764899,3175.176],[-91.550344,14.764883,3175.79],[-91.550392,14.764869,3177.219],[-91.550442,14.764865,3178.509],[-91.550487,14.76485,3180.149],[-91.550522,14.764815,3182.465],[-91.550546,14.764767,3184.539],[-91.550512,14.764819,3185.883],[-91.550533,14.764776,3186.324],[-91.55051,14.764724,3186.715],[-91.550488,14.76468,3187.569],[-91.550533,14.764697,3189.519],[-91.550497,14.764655,3191.22],[-91.550448,14.764667,3191.948],[-91.550412,14.76462,3192.361],[-91.550459,14.76461,3193.017],[-91.550492,14.764578,3195.009],[-91.550471,14.764533,3196.926],[-91.550515,14.764515,3199.162],[-91.550465,14.764508,3201.456],[-91.550459,14.764455,3203.46],[-91.550509,14.764443,3205.591],[-91.550542,14.76441,3206.652],[-91.550533,14.764341,3207.826],[-91.550555,14.764387,3208.866],[-91.550603,14.764374,3210.067],[-91.550632,14.764334,3211.589],[-91.550607,14.764266,3213.506],[-91.550534,14.764254,3214.126],[-91.550563,14.764296,3217.109],[-91.550517,14.764321,3217.17],[-91.550559,14.764284,3217.166],[-91.550523,14.764236,3217.39],[-91.550562,14.764265,3217.424],[-91.550579,14.764222,3218.445],[-91.550547,14.764178,3219.666],[-91.550525,14.764257,3220.82],[-91.550456,14.764171,3223.72],[-91.550583,14.764222,3224.831],[-91.550541,14.764187,3225.029],[-91.55057,14.764079,3225.4],[-91.550492,14.764164,3225.92],[-91.550483,14.764212,3226.109],[-91.55053,14.764184,3226.244],[-91.55049,14.76416,3226.35],[-91.550434,14.764095,3226.524],[-91.550478,14.764012,3226.818],[-91.550484,14.764077,3226.919],[-91.550406,14.764088,3227.03],[-91.550364,14.764065,3227.854],[-91.550299,14.764058,3228.534],[-91.550257,14.764033,3228.775],[-91.550323,14.764067,3229.979],[-91.550391,14.764027,3230.005],[-91.550439,14.763994,3230.125],[-91.550401,14.764021,3230.209],[-91.550398,14.764068,3231.489],[-91.550366,14.764028,3231.565],[-91.550383,14.763985,3231.759],[-91.550509,14.763933,3232.983],[-91.550383,14.76393,3234.854],[-91.550334,14.763976,3235.135],[-91.550342,14.764024,3235.259],[-91.550371,14.763981,3235.449],[-91.550355,14.763929,3235.55],[-91.550378,14.763973,3235.617],[-91.550393,14.763913,3235.787],[-91.550372,14.763868,3235.915],[-91.550317,14.763935,3236.609],[-91.550334,14.76389,3237.683],[-91.550298,14.76392,3238.629],[-91.550252,14.763898,3238.733],[-91.550209,14.763945,3238.987],[-91.550212,14.763863,3240.118],[-91.550165,14.763839,3241.269],[-91.550223,14.763757,3242.173],[-91.550254,14.763793,3242.463],[-91.55029,14.763764,3242.434],[-91.55028,14.763816,3243.394],[-91.550318,14.763773,3243.657],[-91.550301,14.76371,3244.022],[-91.55035,14.763724,3244.509],[-91.550313,14.763682,3246.231],[-91.550361,14.763654,3246.997],[-91.550322,14.763714,3247.291],[-91.550267,14.763687,3247.865],[-91.550198,14.763728,3247.946],[-91.550224,14.763675,3248.227],[-91.55026,14.763721,3248.451],[-91.550206,14.763669,3248.891],[-91.550277,14.763625,3249.912],[-91.550261,14.763673,3250.149],[-91.550322,14.763596,3250.602],[-91.550339,14.76365,3252.122],[-91.550307,14.763706,3253.509],[-91.550319,14.76366,3255.696],[-91.550309,14.763615,3255.652],[-91.550247,14.763605,3255.716],[-91.550229,14.763555,3255.93],[-91.550198,14.763506,3255.941],[-91.550162,14.763626,3257.922],[-91.550144,14.763571,3258.726],[-91.550111,14.763527,3259.456],[-91.550096,14.763449,3260.097],[-91.55011,14.763499,3260.397],[-91.55009,14.763454,3260.623],[-91.550018,14.76342,3261.825],[-91.550023,14.763472,3262.309],[-91.550008,14.763551,3262.911],[-91.550041,14.763514,3263.137],[-91.550014,14.763457,3263.561],[-91.550042,14.763417,3263.785],[-91.550107,14.763363,3264.176],[-91.550137,14.763326,3264.367],[-91.550176,14.763357,3265.161],[-91.550154,14.763314,3265.611],[-91.550084,14.763347,3266.862],[-91.55003,14.763359,3266.985],[-91.54998,14.763396,3267.389],[-91.550023,14.763352,3267.617],[-91.550055,14.763284,3268.109],[-91.550067,14.763328,3268.33],[-91.549999,14.763358,3269.216],[-91.55,14.763269,3269.58],[-91.550012,14.763157,3269.964],[-91.549997,14.763201,3270.315],[-91.549944,14.763192,3270.836],[-91.54996,14.763144,3270.97],[-91.55,14.763176,3271.72],[-91.550091,14.763228,3272.781],[-91.550097,14.763178,3273.351],[-91.550095,14.763224,3274.701],[-91.550067,14.763178,3274.911],[-91.550093,14.763134,3275.309],[-91.550049,14.763116,3276.647],[-91.550047,14.763069,3278.523],[-91.550056,14.763132,3279.697],[-91.550082,14.763068,3280.571],[-91.550132,14.763106,3280.792],[-91.550079,14.763106,3281.383],[-91.550034,14.763119,3281.767],[-91.550125,14.763082,3283.527],[-91.550064,14.762981,3284.838],[-91.550023,14.763115,3285.227],[-91.550059,14.76305,3285.368],[-91.550062,14.763124,3285.314],[-91.550071,14.763072,3285.809],[-91.549994,14.763037,3286.324],[-91.550023,14.763084,3286.43],[-91.550002,14.763139,3286.694],[-91.550039,14.763038,3286.978],[-91.550007,14.762974,3287.199],[-91.550036,14.763011,3287.47],[-91.550038,14.762959,3287.934],[-91.550074,14.762987,3288.114],[-91.550033,14.762963,3288.495],[-91.549954,14.762934,3289.319],[-91.550004,14.762928,3289.509],[-91.550055,14.762922,3289.919],[-91.549992,14.762936,3290.909],[-91.549949,14.762961,3291.063],[-91.549981,14.762919,3291.279],[-91.549938,14.7629,3291.973],[-91.549889,14.76285,3292.647],[-91.549954,14.76286,3293.778],[-91.549972,14.76301,3294.379],[-91.549934,14.762955,3294.513],[-91.549884,14.762905,3294.613],[-91.549833,14.762917,3294.874],[-91.54984,14.762857,3295.061],[-91.549909,14.76288,3295.421],[-91.549899,14.762821,3295.813],[-91.549879,14.762777,3297.409],[-91.549888,14.762728,3297.478],[-91.549853,14.762688,3297.984],[-91.549835,14.762625,3300.648],[-91.549798,14.762685,3301.442],[-91.549839,14.762661,3303.173],[-91.549851,14.762715,3303.474],[-91.549824,14.76267,3305.028],[-91.549838,14.762627,3305.128],[-91.549839,14.762576,3305.619],[-91.549822,14.762632,3306.492],[-91.549789,14.762596,3307.173],[-91.549866,14.762622,3307.92],[-91.549895,14.762567,3308.509],[-91.549945,14.762629,3309.281],[-91.549929,14.762584,3309.447],[-91.54997,14.762555,3309.731],[-91.549984,14.762624,3309.855],[-91.549945,14.762656,3309.886],[-91.549989,14.762679,3310.027],[-91.549964,14.762638,3310.561],[-91.549997,14.762587,3311.431],[-91.550025,14.762624,3311.592],[-91.55007,14.762611,3311.734],[-91.550055,14.762545,3312.055],[-91.550109,14.762517,3313.31],[-91.550131,14.762564,3314.109],[-91.55018,14.762538,3317.335],[-91.550186,14.76248,3319.491],[-91.550223,14.762528,3319.725],[-91.550272,14.76251,3321.859],[-91.550328,14.762482,3322.97],[-91.550392,14.762475,3323.221],[-91.550238,14.762471,3324.045],[-91.550184,14.762469,3324.025],[-91.550136,14.762444,3324.266],[-91.550095,14.762408,3324.866],[-91.550347,14.762454,3326.029],[-91.550054,14.76233,3326.521],[-91.550255,14.762441,3326.609],[-91.550287,14.76239,3327.148],[-91.550314,14.762324,3327.414],[-91.550264,14.762346,3327.988],[-91.55023,14.762421,3328.482],[-91.550154,14.762432,3328.953],[-91.550176,14.762391,3328.994],[-91.550175,14.762329,3329.058],[-91.550129,14.762353,3329.168],[-91.550153,14.762291,3329.439],[-91.5501,14.762268,3329.687],[-91.550041,14.762273,3331.142],[-91.549993,14.76225,3332.126],[-91.549961,14.76221,3334.109],[-91.549975,14.762116,3334.68],[-91.550009,14.762077,3337.016],[-91.549955,14.762084,3337.68],[-91.549874,14.762126,3338.594],[-91.54991,14.76206,3339.065],[-91.549937,14.761991,3340.316],[-91.549885,14.762,3342.16],[-91.549922,14.762032,3343.71],[-91.549878,14.762006,3343.981],[-91.549803,14.762027,3344.246],[-91.549812,14.761982,3345.188],[-91.549837,14.762025,3345.216],[-91.549802,14.761963,3346.109],[-91.549855,14.761967,3347.186],[-91.549801,14.761924,3347.352],[-91.549738,14.761913,3347.486],[-91.549683,14.761915,3347.73],[-91.549752,14.761901,3348.091],[-91.549777,14.761859,3348.032],[-91.549725,14.76188,3348.326],[-91.549783,14.761809,3350.016],[-91.549842,14.761819,3350.647],[-91.549855,14.761763,3350.722],[-91.549824,14.76172,3351.762],[-91.549755,14.761734,3354.208],[-91.549772,14.761659,3355.109],[-91.549725,14.761655,3357.094],[-91.549706,14.761611,3357.32],[-91.549633,14.761615,3357.974],[-91.549661,14.761565,3358.488],[-91.549667,14.761518,3358.689],[-91.549615,14.761524,3360.32],[-91.549553,14.761446,3360.644],[-91.549559,14.761515,3361.464],[-91.5496,14.761537,3362.735],[-91.549603,14.761492,3363.076],[-91.549602,14.761433,3365.09],[-91.54956,14.761456,3365.319],[-91.54961,14.761445,3365.909],[-91.549586,14.761391,3366.529],[-91.549533,14.761383,3367.655],[-91.549567,14.761423,3368.499],[-91.549598,14.761371,3369.623],[-91.549656,14.76139,3370.944],[-91.549631,14.761317,3371.215],[-91.54961,14.761365,3371.639],[-91.549597,14.761301,3373.859],[-91.549624,14.761261,3374.44],[-91.549665,14.761215,3376.255],[-91.549621,14.761234,3377.207],[-91.549652,14.761194,3377.417],[-91.549609,14.76124,3377.409],[-91.549587,14.761281,3377.477],[-91.549618,14.761244,3377.443],[-91.549591,14.761283,3377.297],[-91.549631,14.761257,3377.291],[-91.549579,14.76124,3377.232],[-91.54956,14.761196,3377.233],[-91.549538,14.761239,3377.627],[-91.549581,14.761211,3378.697],[-91.549577,14.761162,3379.578],[-91.549525,14.761147,3381.063],[-91.549516,14.761087,3383.744],[-91.549558,14.761128,3385.618],[-91.549563,14.761071,3389.009],[-91.549583,14.761007,3391.858],[-91.549572,14.761063,3392.664],[-91.549467,14.761065,3393.968],[-91.549476,14.761116,3394.762],[-91.549506,14.761013,3395.563],[-91.549555,14.761,3396.024],[-91.549474,14.760995,3398.098],[-91.549524,14.760986,3400.158],[-91.549535,14.760936,3400.469],[-91.549607,14.760919,3401.859],[-91.549593,14.760973,3402.103],[-91.549646,14.760957,3402.823],[-91.54963,14.760914,3403.209],[-91.549673,14.760893,3404.957],[-91.549689,14.760848,3405.743],[-91.549708,14.760806,3407.957],[-91.549745,14.760773,3410.111],[-91.549792,14.760768,3412.862],[-91.54974,14.760739,3416.353],[-91.549789,14.760708,3419.267],[-91.549792,14.760651,3421.017],[-91.549758,14.760688,3423.268],[-91.549711,14.760703,3424.939],[-91.549737,14.760655,3425.601],[-91.549786,14.760648,3426.421],[-91.549744,14.760613,3426.909],[-91.54979,14.760601,3427.445],[-91.549768,14.760558,3428.381],[-91.54981,14.760528,3429.525],[-91.549856,14.760539,3430.389],[-91.54981,14.760549,3432.42],[-91.54986,14.760546,3434.381],[-91.549819,14.760503,3434.435],[-91.549842,14.760457,3434.785],[-91.549797,14.760472,3435.896],[-91.549772,14.760427,3437.565],[-91.549824,14.760436,3438.568],[-91.549842,14.760385,3440.214],[-91.549889,14.76038,3442.209],[-91.549946,14.760364,3443.778],[-91.549988,14.760338,3445.874],[-91.550024,14.760304,3448.488],[-91.549996,14.760266,3451.472],[-91.549949,14.760257,3454.243],[-91.549952,14.760209,3456.274],[-91.549996,14.760191,3457.878],[-91.549962,14.760153,3459.358],[-91.54995,14.760109,3461.459],[-91.549998,14.760124,3464.293],[-91.549994,14.760078,3466.365],[-91.550027,14.760045,3467.421],[-91.550066,14.76007,3470.709],[-91.550099,14.760038,3474.471],[-91.550121,14.759987,3476.347],[-91.55018,14.759999,3477.341],[-91.550197,14.759953,3479.135],[-91.550167,14.759907,3482.246],[-91.550182,14.759863,3484.247],[-91.550232,14.759856,3486.061],[-91.550219,14.759787,3488.721],[-91.550167,14.759759,3494.232],[-91.550189,14.759811,3496.372],[-91.550201,14.759767,3496.913],[-91.550202,14.75972,3497.214],[-91.550253,14.759745,3497.509],[-91.550271,14.759702,3498.939],[-91.550309,14.75973,3500.025],[-91.550322,14.759675,3502.379],[-91.550359,14.759638,3505.113],[-91.550307,14.759665,3506.854],[-91.550328,14.759609,3508.255],[-91.550335,14.759656,3509.219],[-91.550389,14.759641,3509.429],[-91.550438,14.759631,3510.85],[-91.550483,14.759613,3512.785],[-91.550495,14.759563,3513.989],[-91.550468,14.759518,3515.717],[-91.550517,14.759505,3517.809],[-91.55048,14.759465,3519.47],[-91.550465,14.759411,3521.386],[-91.550428,14.759367,3523.76],[-91.550393,14.759335,3525.994],[-91.550445,14.75935,3529.125],[-91.550494,14.75935,3531.826],[-91.550545,14.75935,3532.36],[-91.550545,14.759304,3534.39],[-91.550496,14.759289,3536.591],[-91.55049,14.75924,3537.653],[-91.550531,14.759217,3539.004],[-91.550536,14.759137,3543.014],[-91.550565,14.759175,3545.409],[-91.550586,14.759132,3546.057],[-91.550574,14.759087,3549.133],[-91.55053,14.759101,3552.167],[-91.550576,14.759084,3553.121],[-91.550611,14.759048,3553.882],[-91.550582,14.759,3555.593],[-91.550618,14.759043,3557.947],[-91.550669,14.759038,3560.037],[-91.550621,14.759037,3561.238],[-91.550672,14.759019,3561.544],[-91.550631,14.758995,3561.905],[-91.550655,14.758954,3562.915],[-91.550652,14.758903,3564.009],[-91.550628,14.758863,3566.626],[-91.550628,14.758911,3569.142],[-91.55062,14.758864,3569.556],[-91.550654,14.758898,3570.03],[-91.550695,14.758925,3570.471],[-91.550727,14.758962,3570.672],[-91.550786,14.758926,3571.146],[-91.550772,14.758875,3572.026],[-91.550802,14.758831,3574.017],[-91.550755,14.758851,3576.028],[-91.550783,14.758815,3578.989],[-91.550784,14.758754,3581.517],[-91.550821,14.758783,3581.909],[-91.550841,14.758737,3583.134],[-91.550843,14.75869,3584.78],[-91.550795,14.758673,3586.524],[-91.550842,14.758673,3589.588],[-91.550877,14.758714,3591.419],[-91.550887,14.758661,3591.79],[-91.550864,14.758619,3593.224],[-91.55091,14.75862,3595.074],[-91.550918,14.75857,3597.035],[-91.550895,14.758526,3599.671],[-91.550936,14.758464,3601.141],[-91.550936,14.758418,3602.815],[-91.550909,14.75849,3603.909],[-91.550892,14.758444,3605.629],[-91.550921,14.758491,3605.615],[-91.550886,14.758536,3605.649],[-91.550903,14.758492,3605.473],[-91.550942,14.758467,3605.634],[-91.550913,14.758419,3605.665],[-91.55092,14.75837,3606.319],[-91.550906,14.758326,3607.539],[-91.550921,14.758278,3608.79],[-91.550946,14.758317,3610.493],[-91.55094,14.758269,3611.665],[-91.550936,14.758223,3612.921],[-91.55094,14.758271,3614.009],[-91.550992,14.758273,3615.051],[-91.550959,14.758241,3616.577],[-91.550985,14.758282,3617.781],[-91.550957,14.758236,3618.815],[-91.550894,14.758233,3619.626],[-91.550941,14.758219,3619.997],[-91.550982,14.758242,3620.481],[-91.551031,14.758234,3620.911],[-91.551063,14.758201,3622.312],[-91.551076,14.758154,3624.428],[-91.551085,14.758089,3626.189],[-91.551124,14.758117,3627.617],[-91.551152,14.758063,3631.109],[-91.55115,14.75811,3635.074],[-91.551203,14.758077,3638.27],[-91.551163,14.758106,3638.844],[-91.551176,14.758037,3642.048],[-91.551157,14.757981,3642.219],[-91.551141,14.75803,3642.35],[-91.551159,14.757988,3646.994],[-91.551208,14.757998,3647.184],[-91.551255,14.757988,3647.215],[-91.551289,14.758027,3648.169],[-91.551329,14.758052,3649.904],[-91.551362,14.758005,3652.124],[-91.551386,14.757958,3654.109],[-91.551371,14.757912,3656.258],[-91.551422,14.757914,3658.774],[-91.55144,14.757868,3660.688],[-91.551491,14.75787,3663.562],[-91.551538,14.757876,3667.153],[-91.551545,14.757831,3670.174],[-91.551561,14.757785,3672.878],[-91.551603,14.757806,3675.998],[-91.551607,14.757758,3678.179],[-91.551605,14.757713,3679.313],[-91.551567,14.757681,3680.943],[-91.551613,14.757687,3682.407],[-91.551602,14.75764,3683.509],[-91.55157,14.757591,3685.383],[-91.55153,14.757567,3687.079],[-91.551496,14.757526,3687.963],[-91.551475,14.757481,3690.237],[-91.551524,14.757484,3692.838],[-91.551543,14.75744,3694.539],[-91.551587,14.757424,3696.053],[-91.551633,14.757402,3697.263],[-91.551622,14.757358,3698.654],[-91.551599,14.757318,3699.763],[-91.551575,14.757276,3699.744],[-91.551576,14.757223,3699.818],[-91.551606,14.757176,3700.109],[-91.551632,14.757131,3700.518],[-91.551658,14.757086,3700.884],[-91.551705,14.757066,3700.978],[-91.551747,14.757032,3700.932],[-91.551759,14.756988,3700.983],[-91.551768,14.75694,3700.964],[-91.551741,14.756898,3699.868],[-91.551783,14.756859,3697.398],[-91.55181,14.756822,3694.549],[-91.5518,14.756766,3692.244],[-91.551807,14.756715,3691.005],[-91.551812,14.756665,3690.515],[-91.551795,14.756621,3689.809],[-91.55183,14.756582,3689.866],[-91.551877,14.756569,3689.832],[-91.551918,14.756539,3689.436],[-91.551895,14.756495,3689.43],[-91.551903,14.75645,3689.121],[-91.551903,14.756403,3688.412],[-91.551894,14.756357,3687.776],[-91.551888,14.756308,3686.526],[-91.551903,14.756259,3685.067],[-91.551944,14.756288,3683.696],[-91.551964,14.756246,3682.531],[-91.551918,14.756237,3680.924],[-91.551884,14.756202,3679.709],[-91.551836,14.756192,3679.721],[-91.551789,14.756197,3679.797],[-91.551833,14.75618,3679.841],[-91.551791,14.756219,3680.735],[-91.551802,14.756269,3681.676],[-91.551791,14.756315,3682.127],[-91.551794,14.756363,3683.681],[-91.551791,14.756412,3685.111],[-91.551795,14.756464,3685.782],[-91.551824,14.7565,3686.611],[-91.55184,14.756545,3687.521],[-91.551875,14.756587,3688.703],[-91.55185,14.756633,3689.909],[-91.551829,14.756682,3690.443],[-91.55182,14.756727,3690.499],[-91.551797,14.756773,3690.633],[-91.551794,14.75682,3691.287],[-91.551777,14.756863,3692.068],[-91.551757,14.756913,3693.029],[-91.551767,14.75696,3693.763],[-91.551722,14.756985,3694.093],[-91.551687,14.757019,3695.284],[-91.551688,14.757065,3697.321],[-91.551693,14.757116,3699.941],[-91.551653,14.757145,3702.205],[-91.551614,14.757179,3703.109],[-91.551589,14.757222,3703.194],[-91.551563,14.757269,3703.13],[-91.551531,14.757305,3703.154],[-91.551493,14.757336,3702.998],[-91.55151,14.757384,3702.999],[-91.551552,14.757406,3703.06]]}}
